name,url,additional_urls,username,password,note,cardholdername,cardnumber,cvc,pin,expirydate,zipcode,folder,full_name,phone_number,email,address1,address2,city,country,state,type,custom_fields
Business,,,,,,,,,,,,,,,,,,,,,folder,
Productivity Tools,,,,,,,,,,,,,,,,,,,,,folder,
Secure Notes,,,,,,,,,,,,,,,,,,,,,folder,
Telecom,,,,,,,,,,,,,,,,,,,,,folder,
Arts,,,,,,,,,,,,,,,,,,,,,folder,
News/Reference,,,,,,,,,,,,,,,,,,,,,folder,
Home,,,,,,,,,,,,,,,,,,,,,folder,
Games,,,,,,,,,,,,,,,,,,,,,folder,
Finance,,,,,,,,,,,,,,,,,,,,,folder,
Entertainment,,,,,,,,,,,,,,,,,,,,,folder,
Email,,,,,,,,,,,,,,,,,,,,,folder,
Shopping,,,,,,,,,,,,,,,,,,,,,folder,
Social,,,,,,,,,,,,,,,,,,,,,folder,
Shopgoodwill.com,https://shopgoodwill.com/register,,oscar16g,Silkworm123!,,,,,,,,,,,,,,,,,password,"[{""label"":""First Name"",""type"":""text"",""value"":""oscar""},{""label"":""Last Name"",""type"":""text"",""value"":""gaetan""},{""label"":""Home Phone"",""type"":""text"",""value"":""9054071343""},{""label"":""Work Phone"",""type"":""text"",""value"":""""},{""label"":""Company"",""type"":""text"",""value"":""""},{""label"":""Country"",""type"":""text"",""value"":""United States""},{""label"":""Street Address"",""type"":""text"",""value"":""1303 Savannah Pl""},{""label"":""City"",""type"":""text"",""value"":""Hopkinsville""},{""label"":""State/Province"",""type"":""text"",""value"":""KY""},{""label"":""Zip/Postal Code"",""type"":""text"",""value"":""42240-8472""},{""label"":""Email address"",""type"":""text"",""value"":""linuxsbcguy@gmail.com""}]"
Microsoft Login,,,,,"login name: franco.gaetan@gmail.com

pass: Uxbridge17!


New

MartineandFranco123

",,,,,,,,,,,,,,,,note,
Rigmodels.com,https://rigmodels.com,,rcman,Cogency123,,,,,,,,,,,,,,,,,password,"[{""label"":""email"",""type"":""text"",""value"":""rcmancanada@gmail.com""}]"
steam Garry Suck,,,,,"login: garrysucks

pass: MartineUxbridge99!

",,,,,,,,,,,,,,,,note,
192.168.10.12,https://192.168.10.12,,administrator@rcman.local,1Stw1drtw!,,,,,,,,,,,,,,,,,password,
nordaccount.com,https://nordaccount.com/login?challenge=546595deab26474a966d217e0f25e218,,franco.gaetan@gmail.com,BlackBoy1234!,,,,,,,,,,,,,,,,,password,
Google plus account ,,,,,"YouTube login for rcman 
Password JodiMartine123!

",,,,,,,,,,,,,,,,note,
Bestbuy.ca,https://www.bestbuy.ca/authentication/en-ca/signin,,franco.gaetan@gmail.com,f5d8@#r^d@3GwRBu!c1q,,,,,,,,,,,,,,,,,password,
X.com,https://x.com,,franco.gaetan@gmail.com,'%xtugH2&D^8H$K1jexKz,,,,,,,,,,,,,,,,,password,
ADP Work,,,,,"username: francogaetan
pw: Martine123!


https://workforcenow.adp.com/theme/index.html#/Myself/PayandAnnualStatements",,,,,,,,,,,,,,,,note,
Expressvpn.com,https://www.expressvpn.com,,franco.gaetan@gmail.com,7M9bu7aF,,,,,,,,,,,,,,,,,password,
reports.adp.ca,https://reports.adp.ca/secure/ROIlogin.fcc,,fgaetan,JGMD4Stw1drtw!,,,,,,,,,,,,,,,,,password,
paypal.com,https://www.paypal.com,,franco.gaetan@gmail.com,MyComputer1!,,,,,,,,,,,,,,,,,password,
nvidia.com,http://login.nvgs.nvidia.com,,rcmancanada@gmail.com,Uxbridge17!,,,,,,,,,,,,,,,,,password,
malwarebytes.com,https://my.malwarebytes.com/en/login,,franco.gaetan@gmail.com,JG1Stw1drtw!,,,,,,,,,,,,,,,,,password,
zoom.us,http://zoom.us,,franco.gaetan@gmail.com,Wisdom123,,,,,,,,,,,,,,,,,password,
rogersondemand.com,https://secure.rogersondemand.com/rest/oauth/authorize,,marjod183@gmail.com,RogerRabbit25,,,,,,,,,,,,,,,,,password,
rogers.com,https://www.rogers.com,,marjod183@gmail.com,SilkwormJodi1234!,,,,,,,,,,,,,,,,,password,
canadacomputers.com,https://www.canadacomputers.com/,,franco.gaetan@gmail.com,JG1Stw1drtw!,,,,,,,,,,,,,,,,,password,
Sparkfun.com,https://www.sparkfun.com/customer/account/create/,,rcmancanada@gmail.com,FunnyMan123!,,,,,,,,,,,,,,,,,password,"[{""label"":""First Name"",""type"":""text"",""value"":""Franco""},{""label"":""Last Name"",""type"":""text"",""value"":""Gaetan""}]"
192.168.10.10,https://192.168.10.10/ui/#/login,,root,silkworm123!,,,,,,,,,,,,,,,,,password,
ziprecruiter.com,https://www.ziprecruiter.com/login?resetpw=1&tsid=111000104,,franco.gaetan@gmail.com,Junkerup!,,,,,,,,,,,,,,,,,password,
Huggingface.co,https://huggingface.co/join,,franco.gaetan@gmail.com,Silkworm12345!,,,,,,,,,,,,,,,,,password,
discord.com,https://discord.com/reset#token=eyJpZCI6MjE1NTkzMDg4MzUxOTkzODU4LCJlbWFpbCI6InJjbWFuY2FuYWRhQGdtYWlsLmNvbSJ9.Xw2nqw.t0AIioV3A4C5m_179JQ4lpO9yFw,,rcmancanada@gmail.com,MartineUxbridge1!,,,,,,,,,,,,,,,,,password,
Upwork.com,https://www.upwork.com/nx/signup/,,franco.gaetan@gmail.com,Silkworm12345!,,,,,,,,,,,,,,,,,password,"[{""label"":""First name"",""type"":""text"",""value"":""Franco""},{""label"":""Last name"",""type"":""text"",""value"":""Gaetan""}]"
Owner,,,,,,,,,,,L9P1V3,,Franco,9054071343,franco.gaetan@gmail.com,4 Remion Crescent,,Uxbridge,Canada,Ontario,identity,
Bestbuy.ca,https://www.bestbuy.ca/identity/en-ca/change-password,,,f5d8@#r^d@3GwRBu!c1q,,,,,,,,,,,,,,,,,password,
CBC login,,,,,"Rcmancanada@gmail.come

Silkworm123!

",,,,,,,,,,,,,,,,note,
canadacomputers.com,https://www.canadacomputers.com,,franco.gaetan@gmail.com,JG1Stw1drtw!,,,,,,,,,,,,,,,,,password,
Canakit.com,https://www.canakit.com/Common/System/ResetPassword.aspx,,franco.gaetan@gmail.com,Monday1234!,,,,,,,,,,,,,,,,,password,
Accounts.google.com,https://accounts.google.com/v3/signin/challenge/pwd,,franco.gaetan@assuredauto.ca,Silkworm1234!,,,,,,,,,,,,,,,,,password,
Accounts.google.com,https://accounts.google.com/signin/v2/speedbump/changepassword/changepasswordform,,linuxsbcguy@gmail.com,SilkwormJodi123!,,,,,,,,,,,,,,,,,password,
lp,,,,,"HondaSilkworm1234!

The one below is the NordVPN password 

Login: ComputerAmiga1234!

New: JodiMartine1234!

New: WisdomRules1234!

Master
ToyotaMajesta1234!

As of Oct 11
login now: BlackBoy1234!",,,,,,,,,,,,,,,,note,
Mielecashop.b2clogin.com,https://mielecashop.b2clogin.com/mielecashop.onmicrosoft.com/b2c_1a_signup_signin/oauth2/v2.0/authorize,,franco.gaetan@gmail.com,MartineWash1!,,,,,,,,,,,,,,,,,password,
Digikey.ca,https://www.digikey.ca/MyDigiKey/Registration,,franco.gaetan@gmail.com,Silkworm123!,,,,,,,,,,,,,,,,,password,"[{""label"":""First Name"",""type"":""text"",""value"":""Franco""},{""label"":""Last Name"",""type"":""text"",""value"":""Gaetan""},{""label"":""Phone"",""type"":""text"",""value"":""9054071343""}]"
jauce.com,https://www.jauce.com/auctions/,,franco.gaetan@gmail.com,Silkworm123,,,,,,,,,,,,,,,,,password,
Resmed.com,https://myid.resmed.com/en-US/set-password/dfpl3DqVJAPHTdAcArug/franco.gaetan@gmail.com,,franco.gaetan@gmail.com,Silkworm1234!,,,,,,,,,,,,,,,,,password,
kijiji.ca,https://www.kijiji.ca/k-login-modal.html,,Franco.gaetan@gmail.com,HondaSilkworm123!,,,,,,,,,,,,,,,,,password,
kijiji.ca,https://www.kijiji.ca/t-login.html,,franco.gaetan@gmail.com,muwwy7-miXjek-sasjek,,,,,,,,,,,,,,,,,password,
Arcadepunks.com,https://www.arcadepunks.com/wp-login.php,,rcmancanada@gmail.com,gK5SZ6z)VMH7td%0,,,,,,,,,,,,,,,,,password,
Thirdparty.aliexpress.com,https://thirdparty.aliexpress.com/ggcallback.htm,,franco.gaetan@gmail.com,Silkworm1234!,,,,,,,,,,,,,,,,,password,
Forum.rvspace.org,https://forum.rvspace.org/c/visionfive-2/19,,rcman,Silkworm123!,,,,,,,,,,,,,,,,,password,"[{""label"":""Email"",""type"":""text"",""value"":""franco.gaetan@gmail.com""}]"
Login.ubuntu.com,https://login.ubuntu.com/+new_account,,rcmancanada@gmail.com,MartineJodi1234!,,,,,,,,,,,,,,,,,password,"[{""label"":""Full name"",""type"":""text"",""value"":""Franco""},{""label"":""Username"",""type"":""text"",""value"":""rcman2""}]"
Login.ubuntu.com,https://login.ubuntu.com/JVFP5tg6AkhlkGUN/+login,,franco.gaetan@gmail.com,MartineJodi123!,,,,,,,,,,,,,,,,,password,
Walmart.ca,https://www.walmart.ca/forgot-password/reset,,franco.gaetan@gmail.com,Silkworm1234!,,,,,,,,,,,,,,,,,password,
Ado work,,,,,"Username: francogaetan
Pass: 9Stw1drtw!",,,,,,,,,,,,,,,,note,
r_c_man,https://www.twitch.tv/,,r_c_man,SilkwormFranco123!,,,,,,,,,,,,,,,,,password,
Maxmind.com,https://www.maxmind.com/en/account/sign-in,,uxbridgegaetan@gmail.com,SilkwormMartine1234!,,,,,,,,,,,,,,,,,password,
Maxmind.com,https://www.maxmind.com/en/account/sign-in/set-password,,rcmancanada@gmail.com,SilkwormMartine1234!,,,,,,,,,,,,,,,,,password,
192.168.1.1,https://192.168.1.1/wizard.php,,root@OPNsense.localdomain,Silkworm1234!,,,,,,,,,,,,,,,,,password,
192.168.1.1,https://192.168.1.1/,,root,Silkworm1234!,,,,,,,,,,,,,,,,,password,
10.0.0.1,http://10.0.0.1/,,admin,FrancoUxbridge17,,,,,,,,,,,,,,,,,password,
Riscfive.com,https://www.riscfive.com/password-reset/,,franco.gaetan@gmail.com,Silkworm1234!,,,,,,,,,,,,,,,,,password,
Mypage.beforward.jp,https://mypage.beforward.jp/clients/signin/,,rcmancanada@gmail.com,Silkworm123!,,,,,,,,,,,,,,,,,password,
Ubuntu login,,,,,"Franco.gaetan@gmail.com

ComputerAmiga123!

",,,,,,,,,,,,,,,,note,
Login.launchpad.net,https://login.launchpad.net/WxGv2pyhDTDPPNsk/+decide,,franco.gaetan@gmail.com,MartineJodi123!,,,,,,,,,,,,,,,,,password,
walmartphotocentre.ca,https://www.walmartphotocentre.ca/en/registration/sign-up-step-two/68bd4b5a4e16cc24-20775ff9654132e0-7a20a2b92cb5fb66-cb2674e89451d6ac,,franco.gaetan@gmail.com,pupnyX-7muxci-cykjaw,,,,,,,,,,,,,,,,,password,
Shopgoodwill.com,https://shopgoodwill.com/register,,linuxsbcguy@gmail.com,Silkworm123!,,,,,,,,,,,,,,,,,password,"[{""label"":""First Name"",""type"":""text"",""value"":""oscar""},{""label"":""Last Name"",""type"":""text"",""value"":""gaetan""},{""label"":""Home Phone"",""type"":""text"",""value"":""9054071343""},{""label"":""Work Phone"",""type"":""text"",""value"":""""},{""label"":""Company"",""type"":""text"",""value"":""""},{""label"":""Country"",""type"":""text"",""value"":""United States""},{""label"":""Street Address"",""type"":""text"",""value"":""1303 Savannah Pl""},{""label"":""City"",""type"":""text"",""value"":""Hopkinsville""},{""label"":""State/Province"",""type"":""text"",""value"":""KY""},{""label"":""Zip/Postal Code"",""type"":""text"",""value"":""42240-8472""},{""label"":""Email address"",""type"":""text"",""value"":""linuxsbcguy@gmail.com""}]"
Shopgoodwill.com,https://shopgoodwill.com/register,,linuxsbcguy@gmail.com,Silkworm123!,,,,,,,,,,,,,,,,,password,"[{""label"":""First Name"",""type"":""text"",""value"":""oscar""},{""label"":""Last Name"",""type"":""text"",""value"":""gaetan""},{""label"":""Home Phone"",""type"":""text"",""value"":""9054071343""},{""label"":""Work Phone"",""type"":""text"",""value"":""""},{""label"":""Company"",""type"":""text"",""value"":""""},{""label"":""Country"",""type"":""text"",""value"":""United States""},{""label"":""Street Address"",""type"":""text"",""value"":""1303 Savannah Pl""},{""label"":""City"",""type"":""text"",""value"":""Hopkinsville""},{""label"":""State/Province"",""type"":""text"",""value"":""KY""},{""label"":""Zip/Postal Code"",""type"":""text"",""value"":""42240-8472""},{""label"":""Email address"",""type"":""text"",""value"":""linuxsbcguy@gmail.com""}]"
shopgoodwill.com,https://www.shopgoodwill.com/SignIn,,rcman2,JG1Stw1drtw!,,,,,,,,,,,,,,,,,password,
Lifelabs.com,https://login.on.mycarecompass.lifelabs.com/account/login,,franco.gaetan@gmail.com,Amiga123!,,,,,,,,,,,,,,,,,password,"[{""label"":""Province *Required Field"",""type"":""text"",""value"":""ON""}]"
Pishop.ca,https://www.pishop.ca/login.php,,franco.gaetan@gmail.com,Silkworm12345!,,,,,,,,,,,,,,,,,password,"[{""label"":""First Name\n        Required"",""type"":""text"",""value"":""Franco""},{""label"":""Last Name\n        Required"",""type"":""text"",""value"":""Gaetan""},{""label"":""Company Name"",""type"":""text"",""value"":""self""},{""label"":""Phone Number\n        Required"",""type"":""text"",""value"":""9054071343""},{""label"":""Address Line 1\n        Required"",""type"":""text"",""value"":""4 Remion Crescent""},{""label"":""Address Line 2"",""type"":""text"",""value"":""""},{""label"":""Suburb/City\n        Required"",""type"":""text"",""value"":""Uxbridge""},{""label"":""Country\n        Required"",""type"":""text"",""value"":""Canada""},{""label"":""State/Province\n            Required"",""type"":""text"",""value"":""Ontario""},{""label"":""Zip/Postcode\n        Required"",""type"":""text"",""value"":""L9P1V3""}]"
airbnb.ca,http://www.airbnb.ca,,franco.gaetan@gmail.com,Martine123,,,,,,,,,,,,,,,,,password,
Auth.digikey.com,https://auth.digikey.com/as/authorization.oauth2,,franco.gaetan@gmail.com,Silkworm123!,,,,,,,,,,,,,,,,,password,
Mouser.ca,https://www.mouser.ca/MyAccount/Create,,fgaetan,Datasheet1,,,,,,,,,,,,,,,,,password,"[{""label"":""Country"",""type"":""text"",""value"":""CA""},{""label"":""First Name"",""type"":""text"",""value"":""Franco""},{""label"":""Last Name"",""type"":""text"",""value"":""Gaetan""},{""label"":""Email Address"",""type"":""text"",""value"":""franco.gaetan@gmail.com""}]"
Hackaday.io,https://hackaday.io/signin,,franco.gaetan@gmail.com,HondaMotor123!,,,,,,,,,,,,,,,,,password,
New Personal Info,,,,,,,,,,,,,RCMAN,,,Canada,,,,,identity,
Forum.banana-pi.org,https://forum.banana-pi.org/c/risc-v/bpi-f3/122,,franco.gaetan@assuredauto.ca,Cogency123!,,,,,,,,,,,,,,,,,password,
Banana forum,,,,,Cogency123!,,,,,,,,,,,,,,,,note,
BOFA,,,,,"7h6Z3PmC


ARM Group number is 15846197


 FDL3576183 


404811998225219236489



Person Number: 26573215
Standard ID: ZKI0RM0


https://portal-us.bankofamerica.com/logon/LogonPoint/tmindex.html


1-800-support
1-800-787-7678


IBM Information

Account / User ID RTPD / RAM2235

Registered ID Owner Serial C-P38F / 897

Division / Department 1E / YL3A

HELP (1-888-426-4357) 

Email: Franco.Gaetan@ibm.com


",,,,,,,,,,,,,,,,note,
Sts.boydgroup.com,https://sts.boydgroup.com/adfs/ls/,,franco.gaetan@assuredauto.ca,1Stw1drtw!,,,,,,,,,,,,,,,,,password,
abime.net,http://eab.abime.net,,rcman,bRB7HuVa,,,,,,,,,,,,,,,,,password,
ancestry.ca,https://www.ancestry.ca/order/express/O-24950?rtype=85&o_iid=98436&o_lid=98436&o_sch=Web+Property#/expresscart/,,franco.gaetan@gmail.com,Uxbridge17!,,,,,,,,,,,,,,,,,password,
abime.net,http://eab.abime.net,,franco.gaetan@gmail.com,bRB7HuVa,,,,,,,,,,,,,,,,,password,
TD login,,,,,"Bruno12345

SilkwormsMartine1234

7bhq38s


",,,,,,,,,,,,,,,,note,
All new,,,,,"int password Hondarocks123
slcrb password: Lola123!
Densify login UI: RickDanger123!


public key pass

LolaatheMonkey123

John reset my SLCRB password to

February_17_TwentyTwenty

Changed my domain Login to Silkworm123

New SLCRB from April 13
7jnMwD0k&H#xfjJpp

New password June 8th
SLCRB
QpZaQAG3e64y%rntw

New SLCRB Aug 5th
Mqp5hkp!638o$OUJ8

Changed my login password to

Superrun123

Changed my Domain login to

TrackBar123

Changed Domain pw to Sept 30th

Freeside123

NEW SLCRB Oct 1st\
Vh4d!j20LcFL3mu*W
",,,,,,,,,,,,,,,,note,
TD work login,,,,,"Franco.gaetan@gmail.com

Pass: SilkwormHonda123!",,,,,,,,,,,,,,,,note,
td.com,https://authentication.td.com/uap-ui/index.html?consumer=easyweb&locale=en_CA#/login/easyweb-getting-started,,4724090408826228,ComputerAmiga12345,,,,,,,,,,,,,,,,,password,
td.com,https://authentication.td.com,,4724090408826228,Uxbridge17Jodi123!,,,,,,,,,,,,,,,,,password,
Franco,http://yahoo.com,,fudster99@yahoo.com,Uxbridge17Martine123!,,,,,,,,,,,,,,,,,password,
sunlife.com,http://www.sunnet.sunlife.com,,FRANCO.gaetan@gmail.com,Martine123,,,,,,,,,,,,,,,,,password,
Investors ,,,francogaetan,77VCMh2gAt6S3cLt9W9$,,,,,,,,,,,,,,,,,password,
Oracle login,,,,,"Email: rcmancamada@gmail.com

Pass: Cogency123!

",,,,,,,,,,,,,,,,note,
spotify.com,https://www.spotify.com,,franco.gaetan@gmail.com,Silkworm123!,,,,,,,,,,,,,,,,,password,
AliExpress,,,,,"Login: franco.gaetan@gmail.com
Pass: Silkworm1234!",,,,,,,,,,,,,,,,note,
Profile.oracle.com,https://profile.oracle.com/myprofile/account/create-account.jspx,,franco.gaetan@gmail.com,Silkworm1234!,,,,,,,,,,,,,,,,,password,"[{""label"":""Country"",""type"":""text"",""value"":""CA""},{""label"":""First or Given Name"",""type"":""text"",""value"":""Franco""},{""label"":""Last Name"",""type"":""text"",""value"":""Gaetan""},{""label"":""Job Title"",""type"":""text"",""value"":""Developer""},{""label"":""Work Phone"",""type"":""text"",""value"":""9054071343""},{""label"":""Company Name"",""type"":""text"",""value"":""Self""},{""label"":""Address"",""type"":""text"",""value"":""na""},{""label"":""sView1:r1:0:address2::content"",""type"":""text"",""value"":""""},{""label"":""City"",""type"":""text"",""value"":""Toronto""},{""label"":""State/Province"",""type"":""text"",""value"":""8""},{""label"":""ZIP/Postal Code"",""type"":""text"",""value"":""M4B 2J8""}]"
micromite.org,https://micromite.org/my-account/,,franco.gaetan@gmail.com,Uxbridge59!,,,,,,,,,,,,,,,,,password,
Newgrounds.com,https://www.newgrounds.com/portal/view/921298,,rootakagod@gmail.com,Amiga123,,,,,,,,,,,,,,,,,password,"[{""label"":""PassportTextfield"",""type"":""text"",""value"":""rcman3""},{""label"":""birthday661aeca1e0e8d"",""type"":""text"",""value"":""1967-05-09""}]"
Newgrounds.com,https://www.newgrounds.com/portal/view/921298,,Silkworm123!,Silkworm123!,,,,,,,,,,,,,,,,,password,"[{""label"":""PassportTextfield"",""type"":""text"",""value"":""rcman2""},{""label"":""birthday661aec02d71a3"",""type"":""text"",""value"":""1967-05-09""}]"
Newgrounds.com,https://www.newgrounds.com/portal/view/921298,,rcmancanada@gmail.com,Silkworm123,,,,,,,,,,,,,,,,,password,
GitHub,,,,,"MajestaFunny1234!

",,,,,,,,,,,,,,,,note,
Gamedevmarket.net,https://www.gamedevmarket.net/register,,rcmancanada@gmail.com,Silkworm123!,,,,,,,,,,,,,,,,,password,"[{""label"":""username"",""type"":""text"",""value"":""rcman2""},{""label"":""first_name"",""type"":""text"",""value"":""Frank""},{""label"":""last_name"",""type"":""text"",""value"":""G""},{""label"":""signup_reason"",""type"":""text"",""value"":""A Buyer""}]"
Frdmplus.com,https://www.frdmplus.com/,,franco.gaetan@gmail.com,Silkworm123!,,,,,,,,,,,,,,,,,password,
archive.org,https://archive.org/account/login,,rcmancanada@gmail.com,RickDanger123!,,,,,,,,,,,,,,,,,password,
I-car,,,,,"Icar login

Fgaetan 
Silkworm123!
",,,,,,,,,,,,,,,,note,
Rogers email ,,,,,"Fgaetan@rogers.com

JodiFranco123!
",,,,,,,,,,,,,,,,note,
Epicgames.com,https://www.epicgames.com/id/login/epic,,franco.gaetan@gmail.com,SilkwormHonda1234!,,,,,,,,,,,,,,,,,password,
archive.org,https://archive.org/account/signup?referer=https%3A%2F%2Farchive.org%2Fdetails%2FNeoGeoRomCollectionByGhostware,,R-C-MAN,RickDanger123!,,,,,,,,,,,,,,,,,password,
homedepot.ca,http://www.homedepot.ca,,franco.gaetan@gmail.com,Martine123!,,,,,,,,,,,,,,,,,password,
cra-arc.gc.ca,https://cms-sgj.cra-arc.gc.ca/gol-ged/awsc/cms/login?TYPE=33554432&REALMOID=06-26a97681-2e5a-105d-9505-84cb2b4afb5e&GUID=&SMAUTHREASON=0&METHOD=GET&SMAGENTNAME=-SM-VBsyLaEZXwIUFhq8C3N4UGC2G2ZbCouqrx0srbXXaEq8VpjzECfDP%2bxPlNszQNRnOgP9%2f9tstAUwBzGqfen3slizPVRJupARGTG6DDALLLI%2fRAJeGIJRPkE11nNiLGHr&TARGET=-SM-HTTPS%3a%2f%2fcms--sgj%2ecra--arc%2egc%2eca%2fgol--ged%2fawsc%2fcms%2fmacauth%3fTYPE%3d33554432%26REALMOID%3d06--00ba5d0a--2e5a--105d--9505--84cb2b4afb5e%26GUID%3d%26SMAUTHREASON%3d0%26METHOD%3dGET%26SMAGENTNAME%3d--SM--VBsyLaEZXwIUFhq8C3N4UGC2G2ZbCouqrx0srbXXaEq8VpjzECfDP-%2bxPlNszQNRnOgP9-%2f9tstAUwBzGqfen3slizPVRJupARGTG6DDALLLI-%2fRAJeGIJRPkE11nNiLGHr%26TARGET%3d--SM--HTTPS-%3a-%2f-%2fcms----sgj-%2ecra----arc-%2egc-%2eca-%2fgol----ged-%2fawsc-%2fcms-%2fpostlogin-%3fSAMLRequest-%3dfVA9T8MwEN37KyLvib9oUllJpEpdKpUFEAMLurhHGpTYqc8R---%2FHzcMAALp9MNp---%2Ffe3Xv1fokX94DXBSlmhzQGB3HwrmGXGGcynNuJcurfCxsgh2CL3hYWbtsP4vPSjYPlBNOoiDzLjoeGveKd7LoSrTjvsOrKSirUqLZvsioFVlpb24kEJVrw6CiCiw1TQu5ykVo9SWG22mj9wrJnDLQ---%2Bo4rE---%2BJxGRw1bgjMeaCDjYEIy0ZrH---%2Ff3JJIyZg4---%2Fe---%2BpG1myxV7Uia9VD4Zpu0---%2BF8BiDDcEmDt6PvBFbD6h7---%2F---%2Ba---%2F6j3G5q---%2FjvG9gs---%3D-%26RelayState-%3ddf8f3ed901020418e3827fff00cae6b14023c476-%26SigAlg-%3dhttp---%3A---%2F---%2Fwww-%2ew3-%2eorg---%2F2001---%2F04---%2Fxmldsig----more---%23rsa----sha256-%26Signature-%3doK5zKx1lnuASBs3a---%2BbZuVtxWvU6oIX0OLYPgWusiNB01zG0eTibG5KpZXlE4eWRS12pMHCvVLZdCqgFSxb4zVbvPhZpmzx---%2BvUlNIZ---%2BrP7W3TBecUA0KTikJ5LLUOf2pOiE1eUX---%2Bvau1os30d5Nf2ntlimPpqEBRQBZJh7Ydi---%2Bp5JHKnJZ---%2BCqf6CIp2D---%2B---%2Fm4OF2OitSeleGjUdbUEgKkx5VqMgyUlKQXIRBt5XeBc8C0lPXEwM9GhEcdNODOrQB---%2FXg1rlFIXSpO5UuM7HH---%2FziKk8PhGn6R94bfmAA2NL---%2Fdz6TntH7ZxsUSH3ZUxmgQrav28XT9vVDy6Kj418hkyP3LQ---%3D---%3D-%26SMPORTALURL-%3dhttps---%3A---%2F---%2Fcms----sgj-%2ecra----arc-%2egc-%2eca---%2Fcmsws---%2Fpublic---%2Fsaml2sso,,fgaetan9,MartineJodi123,,,,,,,,,,,,,,,,,password,
clegc-gckey.gc.ca,https://clegc-gckey.gc.ca/j/eng/fp?execution=e3s2,,1967-08-04,RockStar123,,,,,,,,,,,,,,,,,password,
clegc-gckey.gc.ca,https://clegc-gckey.gc.ca/j/eng/l,,fgaetan10,JG1Stw1drtw!,,,,,,,,,,,,,,,,,password,
Generated Password for ebay.com,https://signin.ebay.com/ws/eBayISAPI.dll,,,Zbafv4lKN0Y*wP,,,,,,,,,,,,,,,,,password,
Axischiro.janeapp.com,https://axischiro.janeapp.com/sign_in,,franco.gaetan@gmail.com,Fratelloishere!,,,,,,,,,,,,,,,,,password,
Vuugo.com,https://www.vuugo.com/register/,,franco.gaetan@gmail.com,Silkworm123,,,,,,,,,,,,,,,,,password,"[{""label"":""First Name:"",""type"":""text"",""value"":""Franco""},{""label"":""Last Name:"",""type"":""text"",""value"":""Gaetan""}]"
myworkdayjobs.com,https://tmx.wd3.myworkdayjobs.com/en-US/TMX_Careers/job/Toronto---100-Adelaide-St-W/Systems-Engineer--Virtualization-_R-1308-1/apply?source=Linkedin,,franco.gaetan@gmail.com,MartineJodi123,,,,,,,,,,,,,,,,,password,
Teamviewer,,,,,"rcmancanada@gmail.com
Silkworm1!",,,,,,,,,,,,,,,,note,
myworkdayjobs.com,https://tmx.wd3.myworkdayjobs.com,,franco.gaetan@gmail.com,MartineandFranco123!,,,,,,,,,,,,,,,,,password,
10.0.0.3,https://10.0.0.3/ui/#/login,,root,Silkworm123!,,,,,,,,,,,,,,,,,password,
nexusmod.com,https://users.nexusmods.com/,,rcmancanada@gmail.com,yDg:_eQkP9sjMDg,,,,,,,,,,,,,,,,,password,
users.nexusmods.com,https://users.nexusmods.com,,rcman3,Mustangsally123,,,,,,,,,,,,,,,,,password,
chaturbate.com,https://chaturbate.com,,rootakagod@gmail.com,xKVC$x5HM62c,,,,,,,,,,,,,,,,,password,
sshgit,,,,,ssh-ed25519 AAAAC3NzaC1lZDI1NTE5AAAAIDPzCGaVi5xDtvEk6zQJjIH8PNYc3gtHZZPWySPk6fte franco.gaetan@gmail.com,,,,,,,,,,,,,,,,note,
a1200.net,https://www.a1200.net/rmi/login,,franco.gaetan@gmail.com,Uxbridge17!,,,,,,,,,,,,,,,,,password,
Networkchuck,,,,,"Email: franco.gaetan@gmail.com
Pass: Solkworm123456!
",,,,,,,,,,,,,,,,note,
Avn,,,,,"0x60ebbe371dA6235A12f1CC55e993EdF8Ea2D1475

0x60ebbe371dA6235A12f1CC55e993EdF8Ea2D1475",,,,,,,,,,,,,,,,note,
Daz3d.com,https://www.daz3d.com/get_studio/,,rcmancanada@gmail.com,Silkworm1234!,,,,,,,,,,,,,,,,,password,"[{""label"":""First name"",""type"":""text"",""value"":""franco""},{""label"":""Last name"",""type"":""text"",""value"":""gaetan""}]"
Staples.ca,https://www.staples.ca/a/customer/en/account/login,,franco.gaetan@gmail.com,Silkworm123!,,,,,,,,,,,,,,,,,password,
10.0.0.42,http://10.0.0.42/admin/password.html,,,Silkworm123!,,,,,,,,,,,,,,,,,password,
Zelcore,,,,,MartineJodi123!,,,,,,,,,,,,,,,,note,
Proton,,,,,royal smart diary actress stage general fish aisle main marble gallery vicious,,,,,,,,,,,,,,,,note,
F95zone.to,https://f95zone.to/threads/the-regional-manager-v0-161-horizontical-studio.60813/page-60,,rcmancanada@gmail.com,Silkworm123!,,,,,,,,,,,,,,,,,password,
Arcade punks,,,,,"Rcman email

Pass: gK5SZ6z)VMH7td%0",,,,,,,,,,,,,,,,note,
eab.abime.net,http://eab.abime.net/search.php,,rcman,Uxbridge17!,,,,,,,,,,,,,,,,,password,
Innovative-providers-of-america.thinkific.com,https://innovative-providers-of-america.thinkific.com/users/sign_in,,franco.gaetan@gmail.com,Silkworm123!,,,,,,,,,,,,,,,,,password,"[{""label"":""If you are a human, ignore this field"",""type"":""text"",""value"":""""}]"
F95zone.to,https://f95zone.to/register/,,oGaZzTbwMk5shjxQ,2$!z8DNBeVLMxqXHsneG,,,,,,,,,,,,,,,,,password,"[{""label"":""User name"",""type"":""text"",""value"":""rcman2""},{""label"":""dob_month"",""type"":""text"",""value"":""5""},{""label"":""input"",""type"":""text"",""value"":""09""},{""label"":""input"",""type"":""text"",""value"":""09""}]"
Collisionuniversity.drivenbrands.com,https://collisionuniversity.drivenbrands.com/learn/signin,,fgaetan,Silkworm1!,,,,,,,,,,,,,,,,,password,
discord.com,https://discord.com/reset#token=eyJpZCI6MjE1NTg4NDAzMzE0NTU2OTI4LCJlbWFpbCI6ImZyYW5jby5nYWV0YW5AZ21haWwuY29tIn0.XwXyEg.HNxDext5UeReMUPA7QWLz5r2xqg,,franco.gaetan@gmail.com,JGEB1Stw1drtw!,,,,,,,,,,,,,,,,,password,
Discord franco.Gaetan,,,,,Silkworm123!,,,,,,,,,,,,,,,,note,
discordapp.com,https://discordapp.com/reset?token=eyJpZCI6MjE1NTg4NDAzMzE0NTU2OTI4LCJlbWFpbCI6ImZyYW5jby5nYWV0YW5AZ21haWwuY29tIn0.DvV66Q.3-ZtbAXTiL-1E1hMggFrJpQOWG4,,franco.gaetan@gmail.com,RickDanger123!,,,,,,,,,,,,,,,,,password,
Tcv ,,,,,xocgaN-9sojki-fetkaz,,,,,,,,,,,,,,,,note,
Tab,,,,,xocgaN-9sojki-fetkaz,,,,,,,,,,,,,,,,note,
nordlocker.com,https://ucp.nordlocker.com/login/?utm_source=Onboarding&utm_medium=email&utm_campaign=v4-UCP_All,,franco.gaetan@gmail.com,JGEB9Stw1drtw!,,,,,,,,,,,,,,,,,password,
nordvpn.com,http://join.nordvpn.com,,franco.gaetan@gmail.com,SilkwormFranco123!,,,,,,,,,,,,,,,,,password,
Nord key,,,,,"8LFEP5LC
YSMWUQZ2
C7FRAGHE
3P3RKFA3
A6W378TD
S4F3VMQX
LLH9F6LY
JLDHDCNK
DPYQ2BPU
CJABH9WP",,,,,,,,,,,,,,,,note,
The.hiveos.farm,https://the.hiveos.farm/login/,,franco.gaetan@gmail.com,MartineJodi123!,,,,,,,,,,,,,,,,,password,
Hive,,,,,"2FA Code MJPZCDEILOSBSNKRUDBMPHE7JUGC6PD7
",,,,,,,,,,,,,,,,note,
Zelcore,,,,,"private key

20de416d94966cf4097c54431d8222ceb13ae4b0a11b33c60bcede03f795c23d",,,,,,,,,,,,,,,,note,
Eth,,,,,"0x11a0B89FAc0492331AC2b5Cba58f0270C183c58d

0x4a3D8E7cdB778555eC5f0E5972B3810F19C8EeF5

API Key: fWcGzwTclGBPFoaw

API Secret: 8pAAhoAPahfbhCj9bY8sX4xULnaZdbeD



ETC Classic Address

î‡±
0xdFdB5324ff17ED2F6283119eaffB92AD7B7edF3e

Eth

0x66690c9F87aB764618e8AADaAFfd3C9A0d0899d6


Etc

0xdFdB5324ff17ED2F6283119eaffB92AD7B7edF3e



",,,,,,,,,,,,,,,,note,
Raptorium new,,,,,"RVEDwwcYEFSK8qXpcpe5UdhiCg8cZQodfo


",,,,,,,,,,,,,,,,note,
Monero pass,,,,,Silkworm123!,,,,,,,,,,,,,,,,note,
Olg,,,,,"Username: Rcmancanada 
Pass: Silkworm123!",,,,,,,,,,,,,,,,note,
mm,,,,,"X
I
Linux Mint Real
RCMAN
-
Mnemonic seed
WARNING: Copying your seed to clipboard can expose you to malicious
software, which may record your seed and steal your Monero. Please write
down your seed manually.
C
oven nephew dodge blip algebra people pastry fewest oaks object orders feline
bite anvil orphans umbrella yodel eluded ongoing tryin guarded doorway
hydrogen keep anvil
Wallet restore height
Block #
2475352
Primary address & Keys
Primary address
443HXdvXPK94348ithsEj6LjFxXxQDDRdKoFkMVAoxWnXF4wHTdnTWH3p22TI
v4hTGFCUHevUJju5CgSUP64N1 b713yqWx",,,,,,,,,,,,,,,,note,
Sn,,,,,oven nephew dodge blip algebra people fewest oaks object orders feline bite anvil orphans umbrella yodel eluded ongoing trying guarded doorway hydrogen keep anvil,,,,,,,,,,,,,,,,note,
Btc pay,,,,,3LdjGwYbtj6kX8reXtXe4f9PogGqTeTnGw,,,,,,,,,,,,,,,,note,
Posture brace,,,,,https://www.amazon.ca/Comfort-Posture-Corrector-Brace-100/dp/B01400XXC2/ref=sr_1_1?keywords=TOROS-GROUP%2BComfort&qid=1552933463&s=hpc&sr=1-1-catcorr&th=1,,,,,,,,,,,,,,,,note,
Keypass,,,,,D3@dp00L,,,,,,,,,,,,,,,,note,
Secure Note,,,,,"Nord storage
Password: SilkwormJodi123!",,,,,,,,,,,,,,,,note,
VPN,,,,,"VPN password


qkfxTHse



new password

Vdkp68Lx",,,,,,,,,,,,,,,,note,
Y ash,,,,,"exercise globe lamp tiny photo supreme deputy arch vault tennis cube vehicle slow apple coconut inflict radar heavy caution visa resource congress grow corn

Secret key

main1q0kr6dgkqqqqpqxxd086pfs0mrec0nnhph4vsme4j0jkaxp3jvdurq5wskm0zpun4d29rg7zxat6zkgvanyj0jvtp0860r4r63ta0xvkg6hnmyn4ktgsrvp3nc4ckdnlxmwmq7p5jlugey5znfshcy24qe6g26ym9vydpzgfqn3kkw25h2rhsdrkrewf5c2v6kl9gsap6clqdg685me5sv8erdkfvsmgkzfgkypny30mekysc90t7g7g8kqfayu9hx7hazl887kzsrcqps9yh

View key

zxviews1q0kr6dgkqqqqpqxxd086pfs0mrec0nnhph4vsme4j0jkaxp3jvdurq5wskm0zpun4v9kyqn3syagfe235n4y350qhrcmcl2tqf3ff3szytjgfy922s0fxf4ec0fek56d8mcs4p5lddcmqw8munt2njfne9q59k3gza96s8cjqn3kkw25h2rhsdrkrewf5c2v6kl9gsap6clqdg685me5sv8erdkfvsmgkzfgkypny30mekysc90t7g7g8kqfayu9hx7hazl887kzsrca3wt2f",,,,,,,,,,,,,,,,note,
Rapkey,,,,,L2p1HRo8fSjWZkRdaoqEjquP4JnBDaqsAhbVnqCFaFoLj4XQNsdy,,,,,,,,,,,,,,,,note,
Minerclaim,,,,,e5YRq9rMAcRsMaN,,,,,,,,,,,,,,,,note,
Login pass,,,,,"To RDP it's Amiga123!

to Login to the CIRBA/Densify UI it's Uxbridge17!

to Login to Domain it's Martine123!

",,,,,,,,,,,,,,,,note,
coinbase.com,https://www.coinbase.com/signin,,franco.gaetan@gmail.com,MartineJodi123!,,,,,,,,,,,,,,,,,password,
10.0.0.2,https://10.0.0.2:10000/,,root,stw1drtw,,,,,,,,,,,,,,,,,password,
bethesda.net,http://bethesda.net,,franco.gaetan@gmail.com,Amiga123,,,,,,,,,,,,,,,,,password,
bethesda.net,http://account.bethesda.net,,rcman,Uxbridge17!,,,,,,,,,,,,,,,,,password,
Ei login,,,,,"Fgaetanei 

Pass: JKwindowRacing1

",,,,,,,,,,,,,,,,note,
kijiji.ca,https://www.kijiji.ca/t-login.html,,rcmancanada@gmail.com,Cogency123!,,,,,,,,,,,,,,,,,password,
housesigma.com,https://housesigma.com/web/en/registration,,franco.gaetan@gmail.com,Cogency123,,,,,,,,,,,,,,,,,password,
407etr.com,http://www.407etr.com,,franco.gaetan@gmail.com,Toolazy4traffic!,,,,,,,,,,,,,,,,,password,
staples.taleo.net,https://staples.taleo.net/careersection/careersection/privacyagreement/statementBeforeAuthentification.jsf,,franco.gaetan@gmail.com,Silkworm123!,,,,,,,,,,,,,,,,,password,
Miele,,,,,"Franco.gaetan@gmail.com

SilkwormFranco1!
",,,,,,,,,,,,,,,,note,
docusign.com,https://account.docusign.com/username#/password,,franco.gaetan@gmail.com,JG1Stw1drtw!,,,,,,,,,,,,,,,,,password,
Fgaetanit@gmail.com,,,,,SilkwormJodi123!,,,,,,,,,,,,,,,,note,
harrys.com,https://www.harrys.com/en/ca/users/sign_in,,franco.gaetan@gmail.com,JG1Stw1drtw!,,,,,,,,,,,,,,,,,password,
Canam it,,,,,Pass:Wantmypi3,,,,,,,,,,,,,,,,note,
Pinterest.ca,https://pinterest.ca,,franco.gaetan@gmail.com,MoneyBall123!,,,,,,,,,,,,,,,,,password,
Dropbox.com,https://www.dropbox.com,,fgsamsung183@gmail.com,MartineFranco123!,,,,,,,,,,,,,,,,,password,
manulife.com,https://wwwec7.manulife.com/GBPlanMemberUI/Register.aspx,,fgaetan@densify.com,MartineJodi123,,,,,,,,,,,,,,,,,password,
my space,,,,,pass:uRE#&w9Gdgf9#u9*u&g1B,,,,,,,,,,,,,,,,note,
Ask Ubuntu,https://askubuntu.com,,rcmancanada@gmail.com,StrikeCode123,,,,,,,,,,,,,,,,,password,
cleetusmcfarland.com,https://www.cleetusmcfarland.com,,franco.gaetan@gmail.com,Silkworm123!,,,,,,,,,,,,,,,,,password,
OpenAI,,,,,"Login: franco.gaetan@gmail.com
Pass: Silkworm123!
",,,,,,,,,,,,,,,,note,
sapsf.com,https://career17.sapsf.com/career?company=Opentext&site=&lang=en_US&requestParams=%2bYvWO4PlelI6sF%2b55kLdN7PeM%2f142m1QTUpDQQyO%2fbGvVdQiuPMKhfdErLhQQaoFRaHUjYtnOo3t%0alHFmOpPaJ4In0kOIJ9ClFxAX3sFpddGCgWSR70vyfXn6hqJ3UB3gHdZGLFXtBH3%2fDG2x9PHyunH9%0alodcAyrKYLeBgo1rQpn7jnzfqG5m9w9gEsvjKNS1kBWGgpdMIwfrV6fTrQp1r9ZiJ3Vv7%2fn98vNr%0a8%2bE4B5DZQF9gAIZIKEmam93REB4h%2f9uPBqbjkzF1GKoCHZFLQyd1NEzlHLGQ1JNthiVvhER1aK26%0an4WLN6g8BTxMX0hLSmqaxRePpCPBDCvCOEcKWRqdzmupxLv1ZCuux%2fFO4Enf1ExOo2p7cv%2fdKglz%0aa1HP6YjObfBIWbhU%2fvOj%2fSxhdWIPg3wpphqCs8nr5vaTTtut7AcLQ3uF&login_ns=register&career_ns=job%5fapplication&career_job_req_id=2825&jobPipeline=Direct&_s.crb=lt3QqwW8FTtzYmhLrW%2bLTaBzaotKe0WRkulfT7JxfVc%3d,,franco.gaetan@gmail.com,BringBackNormal123,,,,,,,,,,,,,,,,,password,
HP Login,,,,,"franco.gaetan@gmail.com

Password: MartineJodi123!

",,,,,,,,,,,,,,,,note,
INodez,,,,,"Pass: OscarFranco123!
",,,,,,,,,,,,,,,,note,
Open AI,,,,,"People: Silkworm123!

Sign in with google ",,,,,,,,,,,,,,,,note,
grammarly.com,https://www.grammarly.com/signup?breadcrumbs=true&page=install&install=true&profile=true,,franco.gaetan@gmail.com,JG1Stw1drtw!,,,,,,,,,,,,,,,,,password,
linkedin.com,https://www.linkedin.com,,AgFD_JdIYxHScwAAAX7fiUq8Z3kPKKwqLCbzUfRAQngZCMk5k_xab_E7k7Ag72frBt18mi5vSWqE,Silkworm123!,,,,,,,,,,,,,,,,,password,
chaturbate.com,https://chaturbate.com,,silkworm9,wQ42G8^6#Szr,,,,,,,,,,,,,,,,,password,
google.com,https://accounts.google.com/signin/v2/challenge/pwd,,marjod183@gmail.com,Newroute16 ,,,,,,,,,,,,,,,,,password,
flirtdistrict.com,https://www.flirtdistrict.com/splash#ForgotPassword,,nick123,6szi4tqKgk,,,,,,,,,,,,,,,,,password,
fastener-express.com,https://www.fastener-express.com,,franco.gaetan@gmail.com,Silkworm123,,,,,,,,,,,,,,,,,password,
sunlife.ca,https://www.sunlife.ca/en/support/sign-in-help/my-sun-life/,,131434693130,Memory123,,,,,,,,,,,,,,,,,password,
sunlife.ca,https://www.sunlife.ca/,,franco.gaetan@gmail.com,Martine123,,,,,,,,,,,,,,,,,password,
sunlife.ca,https://www.sunlife.ca/,,***********,Martine123,,,,,,,,,,,,,,,,,password,
thebackshed.com,https://www.thebackshed.com/forum/LogIn.php,,RCMAN,Martine123,,,,,,,,,,,,,,,,,password,
thebackshed.com,https://www.thebackshed.com,,RCMAN,Martine123,,,,,,,,,,,,,,,,,password,
anysex.com,https://anysex.com,,rootakagod@gmail.com,Silkworm123,,,,,,,,,,,,,,,,,password,
luckycrush.live,https://www.luckycrush.live,,rootakagod@gmail.com,Windows123,,,,,,,,,,,,,,,,,password,
thetechgame.com,https://www.thetechgame.com,,rcman,JG1Stw1drtw!,,,,,,,,,,,,,,,,,password,
Hive2,,,,,"Username:Fudster
Pass: Silkworm123!

Email: fgsamsung183@gmail.com

",,,,,,,,,,,,,,,,note,
coinpayments.net,https://www.coinpayments.net/login,,rcman,AmigaComputer123!,,,,,,,,,,,,,,,,,password,
login.docker.com,https://login.docker.com/u/login/password,,gaetafra@flutterint.com,Silkworm123!,,,,,,,,,,,,,,,,,password,
id.securitize.io,https://id.securitize.io,,franco.gaetan@gmail.com,Silkworm123!,,,,,,,,,,,,,,,,,password,
ubisoft.com,https://account.ubisoft.com/en-CA/action/change-password?genomeid=c5393f10-7ac7-4b4f-90fa-21f8f3451a04&locale=en&strStamp=1074B14336B2FE27727F9E77FE24956DC93C94A05A6780346E8228EE6783084EE765E889367C6A2F5C3A0D554C454162B8ED92B85D52C85D756C3595A28DF8E5&strLogin=franco.gaetan%40gmail.com,,franco.gaetan@gmail.com,Uxbridge17,,,,,,,,,,,,,,,,,password,
whattomine.com,https://whattomine.com/users/sign_in,,rcmancanada@gmail.com,Silkworm123!,,,,,,,,,,,,,,,,,password,
ebates.ca,https://www.ebates.ca/landing/coupons-sem?&src=googadw-Search&mkwid=swrNha4dM&pcrid=345301327085&pdv=c&slid=&pgrid=69185140963&ptaid=kwd-301127981503&campid=1817475082&utm_campaign=b&sepos=1t1&pub=ggl&acct=Ebates+CA+-+Brand&gclid=EAIaIQobChMI1K3Y6OD44wIVjIbACh1FVw6xEAAYASAAEgIosPD_BwE,,franco.gaetan@gmail.com,Uxbridge17!,,,,,,,,,,,,,,,,,password,
Aws services ,,,,,"Franco.gaetan@gmail.com

Pass: JodiMartine123!",,,,,,,,,,,,,,,,note,
crypto.coinsmart.com,https://crypto.coinsmart.com/login,,franco.gaetan@gmail.com,Silkworm123!,,,,,,,,,,,,,,,,,password,
login.norton.com,https://login.norton.com,,franco.gaetan@gmail.com,Silkworm123!,,,,,,,,,,,,,,,,,password,
dash.simplemining.net,https://dash.simplemining.net,,franco.gaetan@gmail.com,SilkwormFranco123!,,,,,,,,,,,,,,,,,password,
Whales,,,,,EQDQU75NvBMUHsoxk058wRamvjhW3MO9f3oMHUxEQ7Pu319e,,,,,,,,,,,,,,,,note,
Nice Hash,,,,,"10725988
92498310
95234425
65006883
26420573

",,,,,,,,,,,,,,,,note,
logi.com,https://id.logi.com/index.html?redirect_uri=https://logitech.zendesk.com/access/jwt&client_id=f4cbf5f1-8df3-4e7b-95dd-98e7c1f84e5e&response_type=token&locale=en-us&return_to=https://support.logi.com/hc/en-us/requests/new?ticket_form_id=360000994993,,franco.gaetan@gmail.com,Uxbridge21!,,,,,,,,,,,,,,,,,password,
Malware bytes,,,,,JG1,,,,,,,,,,,,,,,,note,
siriusxm.ca,https://care.siriusxm.ca/login_view.action?alert=success&singleBoxLogin=true,,marjod183@gmail.com,MartineUxbridge17,,,,,,,,,,,,,,,,,password,
walmartphotocentre.ca,http://www.walmartphotocentre.ca,,franco.gaetan@gmail.com,MartineJodi123!,,,,,,,,,,,,,,,,,password,
Work,,,,,"Login with AmigaSilk123
",,,,,,,,,,,,,,,,note,
gitlab.com,https://gitlab.com/users/sign_up,,rcmancanada@gmail.com,Uxbridge17!,,,,,,,,,,,,,,,,,password,
partzilla.com,https://www.partzilla.com/account/login?reurl=L2NhdGFsb2cveWFtYWhhL21vdG9yY3ljbGUvMTk4My9pdDQ5MGs,,franco.gaetan@gmail.com,LollaMartine123,,,,,,,,,,,,,,,,,password,
Dhl login ,,,,,"Franco.gaetan@gmail.com

Pw: ShipFromJapan123!

",,,,,,,,,,,,,,,,note,
10.0.0.50,https://10.0.0.50:10000/,,root,stw1drtw,,,,,,,,,,,,,,,,,password,
10.0.0.50,https://10.0.0.50:10000/session_login.cgi,,franco,stw1drtw,,,,,,,,,,,,,,,,,password,
Rockymountainatvmc.com,https://www.rockymountainatvmc.com,,franco.gaetan@gmail.com,Martine123!,,,,,,,,,,,,,,,,,password,
fortnine.ca,https://fortnine.ca/en/customer/account/create/,,franco.gaetan@gmail.com,Martine123,,,,,,,,,,,,,,,,,password,
IBM W3ID,,,,,"RickDangerFranco123!

You will receive an e-mail when the process is complete.

Your password expires on 12 November 2019

Password changed Jan 17 2020
to

RickDangerouos123!

",,,,,,,,,,,,,,,,note,
LCBO,,,,,"pw: MartineUxbridge17!

",,,,,,,,,,,,,,,,note,
Skype,,,,,"Skype Microsoft 

Password: LolaaKitty123",,,,,,,,,,,,,,,,note,
vnc,,,,,"vNC SERVER master pw

JGEB1Stw1drtw!

Login to server

Amiga123!

",,,,,,,,,,,,,,,,note,
Zoom Densify,,,,,"login; fgaetan@densify.com
pass: JG1Stw1drtw!

",,,,,,,,,,,,,,,,note,
Martine Sirus Radio,,,,,"Three Questions

Favorite pet : lolla

Favorite drink: cooler

favorite team: leafs

login name: marjod183@gmail.com
Password: MartineUxbridge17
",,,,,,,,,,,,,,,,note,
Martine Eucher,,,,,"pw: HappyKitty123

name used: mduxbridge
",,,,,,,,,,,,,,,,note,
amigashop.org,https://www.amigashop.org/create_account.php,,9054071343,Capone123!,,,,,,,,,,,,,,,,,password,
amiga.sk,http://forum.amiga.sk/index.php?,,rcman,BlockBuster123,,,,,,,,,,,,,,,,,password,
2k.com,https://accounts.2k.com/en-US/signup/form,,franco.gaetan@gmail.com,Uxbridge17!,,,,,,,,,,,,,,,,,password,
primedriven.com,https://primedriven.com/account/login,,franco.gaetan@gmail.com,Uxbridge17!,,,,,,,,,,,,,,,,,password,
amigaonthelake.com,https://amigaonthelake.com/login.php?action=create_account,,franco.gaetan@gmail.com,Uxbridge17!,,,,,,,,,,,,,,,,,password,
pagerduty.com,https://densify.pagerduty.com/sign_up?invitation_token=edd34024c7644daa8bdf7f851b527a00,,905-407-1343,Uxbridge17,,,,,,,,,,,,,,,,,password,
condenastdigital.com,http://cnee.condenastdigital.com,,rcmancanada@gmail.com,ManOnFire321!,,,,,,,,,,,,,,,,,password,
badboy.ca,https://www.badboy.ca/customer/account/create/,,franco.gaetan@gmail.com,Cogency123,,,,,,,,,,,,,,,,,password,
spvc65v,https://spvc65v.int.cirba.com/websso/SAML2/SSO/vsphere.local?SAMLRequest=zVRdb9owFH3fr4j8npgEQotFqFhZNaR2ZQ2bpr1MxlzAkmNnvk5C%2F%2F2cABtiU8XjXq17zz1fyfhuX6igBovS6IzEUY8EoIVZS73NyJflQ3hL7ibvxsgLVbJp5Xb6BX5WgC6YIoJ1fu3eaKwKsDnYWgqY6zXsM%2BKBZn5Mau466J1zJTJKsazFMK0jqV0kpF3xSJiCNrBCNDSfPj0mNM%2BfaY3lDixEygiuSPBgrIDufEY2XCGQYD7LyA%2B47d%2Bmw3jIY9EfQTpYxSK5GQGko80w3sTCj%2BGCI8oa%2FiwiVp4lOq5dRpJePAp7SRiPlnHK0pQlcXST9r%2BTYGGNM8Ko91If7KisZoajRKZ5AcicYC1hlkQ9tjoMIfu4XC7CxXO%2B7ABquQb7yU9n5CicDQZ9Enw9OZ60jvsMNLLO47evlEdKZHJMpNNirwfgp9DI5CKQk%2BOhUBK0oy3YKZYCHF9zx8f0%2FOqBQ1KyVt98tjBKitdgqpRp7i1w5zU7W0EXXsHd28TaF7kON90oK1t70HkeJMgXLf7niiu5kWD%2FatI1xM8tTq71mB4FMl%2FwtWxNw3OYq42%2BRDmC1H7lIMZrqYuG%2B7a3nwKKHRQcKXfOhh0w9R1NaG9AP%2By9JW1v8CRoj%2FI3RtM0UdOPjN36hV5Mvz095h1WKLuyCx%2BFn2futfTRtOfZC2ho%2BErB0r%2F9Q%2FB%2FRHUGCrbnVOllOJNTPc9%2FU5Nf&SigAlg=http%3A%2F%2Fwww.w3.org%2F2001%2F04%2Fxmldsig-more%23rsa-sha256&Signature=UTRPU4FSiEos5SzxcV4iFfOmwJEnNS3n5WCif8Kb2In%2BLWW8OGMtye%2F79BTzTYMUfhNJ39K3kmE%2BY7ELFxGMAyeguqJaiEc6vhJ360o1Y3nnalHTsW578YNWxl%2Bc6KT57%2B4l1MZacjANUG%2B8zNFY6ekqM0gWfx%2BKHll8rzNLU5pECarkM6ZF%2BxkHnst5CTBJPEbu8ji2M11FFekwS9kxKWSV7OHYNfQ6cHFYP7d6LixNaK18%2Bj4fwDLOc16VmW9cOnZiA0vh2bAtLwfgPIeUXEWCWoIM67HiIeEBqvCapHOWgglSt%2FgJp2wsjSLVsr4YAtrGgzUJ4i8Sys7DoOmBCw%3D%3D,,int\fgaetan,Fortnight123!,,,,,,,,,,,,,,,,,password,
192.168.0.85,http://192.168.0.85,,fgaetan,Fortnight123!,,,,,,,,,,,,,,,,,password,
thinkresearch.com,https://virtualcare.thinkresearch.com/login,,franco.gaetan@gmail.com,Uxbridge99!,,,,,,,,,,,,,,,,,password,
marketwatch.com,https://register.marketwatch.com/register,,rcmancanada@gmail.com,Uxbride17!,,,,,,,,,,,,,,,,,password,
spvc65v,https://spvc65v.int.cirba.com/websso/SAML2/SSO/vsphere.local?SAMLRequest=zVRbb9owFH7fr4j8njgXRotFqFhZtUq9sIZN014m4xyKJcfOfJyE%2Fvs5ATbUTRWPe7XO%2Bc53S6ZXu0oFLViURuckiWISgBamlPo5J19WN%2BEluZq9myKvVM3mjdvqJ%2FjZALpgjgjW%2BbVro7GpwBZgWyngVpewy4kHWvgxqbkboLfO1cgoxboV4%2FdtJLWLhLRrHglT0Q7WiIYW8%2Fu7lBbFI22x3oKFSBnBFQlujBUwnM%2FJhisEEtwucvIjSS%2FKjKciGyccLiHLxptJuplMkg2MeVZe%2BDFcckTZwp9FxMazRMe1y0kaJ5MwTsJ0skpjlmVslESXk%2BQ7CZbWOCOM%2BiD13o7GamY4SmSaV4DMCdYTZmkUs%2FV%2BCNmn1WoZLh%2BL1QDQyhLsg5%2FOyUE4G40yEnw9Op72jvsMNLLB47ev1AdKZHZIZNBizwfgx9DI7FUgR8dDoSRoR3uwYywVOF5yx6f09OqeQ1qzXt%2FtYmmUFC%2FBXCnTXVvgzmt2toEhvIq7t4n1L7IMN8Moq3t70HkeJCiWPf7nhiu5kWD%2FatI5xE8tTs%2F1mB4EMl%2FwUvam4SnM2Ua%2FRjmAtH5lL8ZraauO%2B7b3nwKKLVQcKXfOhgMw9R1NaTyiH3fekr43eBS0Q%2Fkbo%2Bu6qMsiY5%2F9QpzQb%2Fd3xYAVyqHswkfh55l7qX00%2FXn2BBo6vlaw8m%2F%2FEPwfUV2AgudTqvR1OLNjPU9%2FU7Nf&SigAlg=http%3A%2F%2Fwww.w3.org%2F2001%2F04%2Fxmldsig-more%23rsa-sha256&Signature=ldhWLQI63y%2BMEOCislud9hz8KcY2O%2BkUk1t30WeWTrXJZeFNd1PWQiI7A9UmrrThN9PRLXpiQwGC6qemZ9ySiUgtKxz2ZcYXPBHxYUf1OjKT8lO98b%2FBvdAYMCZl7l1zC2XMgxpewXL%2Fzf%2FPba%2Byx1ecNlEWV%2Fyfcf%2BdwSTqjwIh8Xaqd9uDx9vGLyZLgOh%2BXb32Dqnp%2FuEY4b6LtkFj19ti5pgJMRpfwc%2FkB9yUWd8EgK3b0ghduwMtTKZdkpin%2Flbnqks7Djs68q2lbOxKN%2FmMMPaGgX027Zrx0NtralqbR0XbU%2B9iXiv181J9FCaEls41ER4hNhthcYLDDZB5Cw%3D%3D,,int\fgaetan,Amiga123!,,,,,,,,,,,,,,,,,password,
fgaetan,https://orchestrator.densify.com,,fgaetan,Uxbridge19!,,,,,,,,,,,,,,,,,password,
amedia-computer.com,https://www.amedia-computer.com/en/connexion?back=my-account#account-creation,,franco.gaetan@gmail.com,Uxbridge17!,,,,,,,,,,,,,,,,,password,
checkmate1500plus.com,http://www.checkmate1500plus.com/UserLogin.aspx,,franco.gaetan@gmail.com,Checkmate118,,,,,,,,,,,,,,,,,password,
dialpad.com,http://dialpad.com,,fgaetan@densify.com,Uxbridge17!,,,,,,,,,,,,,,,,,password,
ultimateamiga.co.uk,https://www.ultimateamiga.co.uk/index.php?action=login,,rcman,MartineJodi123!,,,,,,,,,,,,,,,,,password,
personalizationmall.com,https://www.personalizationmall.com/Register.aspx?,,franco.gaetan@gmail.com,JG1Stw1drtw!,,,,,,,,,,,,,,,,,password,
newegg.ca,https://secure.newegg.ca/Shopping/ShoppingLogin.aspx?nextpage=https%3a%2f%2fsecure.newegg.ca%2fGlobalShopping%2fCheckoutStep1.aspx%3fCartID%3d677%252bE94WYAB0XYUF5RE%26PaymentType%3dSIMPLECHECKOUT%26IsFromCart%3d1&,,franco.gaetan@gmail.com,NewEgg321!,,,,,,,,,,,,,,,,,password,
corei64.com,https://corei64.com/shop/index.php?route=account/register,,franco.gaetan@gmail.com,Uxbridge18!,,,,,,,,,,,,,,,,,password,
goshippo.com,https://goshippo.com/register/platforms/ebay_ca/?next=/user/platform/ebay_ca/orders/%3Flang%3Den-US%26user%3Dkyoshoscorpionkid%26lineId%3D123773715985-0,,franco.gaetan@gmail.com,Uxbridge17!,,,,,,,,,,,,,,,,,password,
dowjones.com,http://sso.accounts.dowjones.com,,rcmancanada@gmail.com,Martine123,,,,,,,,,,,,,,,,,password,
gearboxsoftware.com,https://shift.gearboxsoftware.com/password/edit?reset_password_token=pJ2ftRKjGsmJPuxeQWsy,,franco.gaetan@gmail.com,Ilovemaya123,,,,,,,,,,,,,,,,,password,
doublesidedgames.com,https://doublesidedgames.com/my-account/downloads/,,franco.gaetan@gmail.com,VintageRacing123,,,,,,,,,,,,,,,,,password,
ey.taleo.net,https://ey.taleo.net/careersection/iam/accessmanagement/login.jsf,,fgaetan,MartineJodi123,,,,,,,,,,,,,,,,,password,
192.168.1.13,http://192.168.1.13:8000/admin/login/?next=/admin/,,franco,stw1drtw,,,,,,,,,,,,,,,,,password,
pyrsoftware.ca,https://confluence.pyrsoftware.ca/confluence/login.action?os_destination=%2Fpages%2Fviewpage.action%3FspaceKey%3DCAOPS%26title%3DCasino%2BDevOps&permissionViolation=true,,gaetafra,JG1Stw1drtw!,,,,,,,,,,,,,,,,,password,
csr.pstars,https://tools1.csr.pstars:5556/panoptic/grafana-app/login,,gaetafra,JG1Stw1drtw!,,,,,,,,,,,,,,,,,password,
linuxacademy.com,https://login.linuxacademy.com/login?state=g6Fo2SBwZ2N0QllPd19iTTBEanJwR2lCWjVab040MDQ5S1JFNqN0aWTZIFNGaUtBOW5qV2JJaTNhQ0hYNGtPS20wU1kzVGFQeW9Ko2NpZNkgS2FXeE5uMUMyR2M3bjgzVzlPRmVYbHRkOFV0YjV2dng&client=KaWxNn1C2Gc7n83W9OFeXltd8Utb5vvx&protocol=oauth2&response_type=token%20id_token&redirect_uri=https%3A%2F%2Flinuxacademy.com%2Fcp%2Fssologin&scope=openid%20email%20user_impersonation%20profile&audience=https%3A%2F%2Flinuxacademy.com&nonce=Gu_3y.i9R_2RjgKT-DANrmSS6~u7.K5U&auth0Client=eyJuYW1lIjoiYXV0aDAuanMiLCJ2ZXJzaW9uIjoiOS40LjEifQ%3D%3D,,andrik78,lKandrik2a,,,,,,,,,,,,,,,,,password,
qa.pyr,http://hermes-mercury-kibana.qa.pyr:5601/login?nextUrl=%2F#?_g=(),,gaetafra,JG1Stw1drtw!,,,,,,,,,,,,,,,,,password,
qa-sc.pyr,https://starsweb.qa-sc.pyr/signup,,fgaetan,Silkworm123,,,,,,,,,,,,,,,,,password,
qa-eu-sc.pyr,https://starsweb.qa-eu-sc.pyr/,,fgaetan,Silkworm123,,,,,,,,,,,,,,,,,password,
tbe.taleo.net,https://chu.tbe.taleo.net/chu01/ats/careers/v2/applyRequisition?org=GRANTTHORNTON&cws=56&rid=5977&source=indeed,,franco.gaetan@gmail.com,MartineJodi123,,,,,,,,,,,,,,,,,password,
borderlands.com,https://borderlands.com/en-US/vip/,,franco.gaetan@gmail.com,Ilovemaya123,,,,,,,,,,,,,,,,,password,
alayacare.ca,https://car.alayacare.ca/,,martine.sheremeta@lifemark.ca,CovidWinter21,,,,,,,,,,,,,,,,,password,
zoocasa.com,https://www.zoocasa.com/burlington-on-real-estate/102-2010-cleaver-ave,,9057310091,newpass123,,,,,,,,,,,,,,,,,password,
chapmoto.com,https://www.chapmoto.com/customer/account/create,,franco.gaetan@gmail.com,UxbridgeOscar123,,,,,,,,,,,,,,,,,password,
vipgames.com,https://vipgames.com/play/?affiliateId=wpEuchre/#/login,,rcmancanada@gmail.com,Uxbridge1!,,,,,,,,,,,,,,,,,password,
logitechg.com,https://www.logitechg.com/en-us/my-account.html,,franco.gaetan@gmail.com,Uxbridge21!,,,,,,,,,,,,,,,,,password,
abra-electronics.com,https://abra-electronics.com/checkout.html,,franco.gaetan@gmail.com,Uxbridge11!,,,,,,,,,,,,,,,,,password,
iracing.com,https://members.iracing.com/membersite/registration/register.jsp,,franco.gaetan@gmail.com,MartineandFranco123,,,,,,,,,,,,,,,,,password,
berchicci.ca,https://store.berchicci.ca/account/login,,franco.gaetan@gmail.com,deb0c12bca,,,,,,,,,,,,,,,,,password,
mybroadbandaccount.com,https://mybroadbandaccount.com/Compton/,,franco.gaetan@gmail.com,JG1Stw1drtw!,,,,,,,,,,,,,,,,,password,
utsource.net,https://www.utsource.net/cust/register,,franco.gaetan@gmail.com,Uxbridge17!,,,,,,,,,,,,,,,,,password,
allstate.ca,https://careers.allstate.ca/default.aspx?REQ_ID=05821&Location=rep,,franco.gaetan@gmail.com,Martine123,,,,,,,,,,,,,,,,,password,
zoom.us,http://zoom.us,,fgaetan@densify.com,Uxbridge9!,,,,,,,,,,,,,,,,,password,
strawpoll.com,https://strawpoll.com/signup,,rcmancanada@gmail.com,CatPlus123,,,,,,,,,,,,,,,,,password,
patreon.com,http://www.patreon.com,,franco.gaetan@gmail.com,MartineFranco123!,,,,,,,,,,,,,,,,,password,
sterlingbackcheck.com,https://esurvey.sterlingbackcheck.com/secure/eSurveyLogin.aspx?ID=bd9164ddab8b4f28867984f1b0e24d2c,,1967,Martine123!,,,,,,,,,,,,,,,,,password,
costco.ca,https://www.costco.ca/LogonForm,,marjod183@gmail.com,MarFra183!,,,,,,,,,,,,,,,,,password,
escapefromtarkov.com,http://www.escapefromtarkov.com,,franco.gaetan@gmail.com,MartineUxbridge17!,,,,,,,,,,,,,,,,,password,
restomods.com,http://restomods.com,,franco.gaetan@gmail.com,Martine123,,,,,,,,,,,,,,,,,password,
randstad.ca,https://www.randstad.ca/my-randstad/reset-password/?code=e7FTTXMP2jRVmaUdt0vD6jeRQlgYqs0AGCS%2b%2bKtHlCbrUDTNKD1xwr6ImOGxKQS%2bTXuTJhALL9VO0gnNpEMAJ2Sp9pTrLD3IBR4rD7pQu6%2bWw2%2bWlp6KQDhdGp2ZwInj538cBgxTSqdiOo2e3eqiomdKv2xO8wKKT6NOnBtMW3Z0WWbCz7lUWG3866Bwp2VVVTsNZaF3nuwStUteK7G6zw%3d%3d,,franco.gaetan@gmail.com,MartineJodi123!,,,,,,,,,,,,,,,,,password,
pubg.com,https://accounts.pubg.com/register,,OldFart,UxbridgeMartine17!,,,,,,,,,,,,,,,,,password,
pogoswine.com,https://www.pogoswine.com/login.html?done=%2Fcart.html%3Fpvs%3D1,,franco.gaetan@gmail.com,Uxbridge17!,,,,,,,,,,,,,,,,,password,
mycanals.com,https://mycanals.com/index.php?dispatch=checkout.checkout,,05/09/2020,Uxbridge17!,,,,,,,,,,,,,,,,,password,
yrp.ca,http://careers.yrp.ca/pcrbin/reg1.aspx?i1=PUBLIC&i2=Reg2&i3=ADD&i4=&i5=&i6=&i7=&i8=&i9=&i10=pcrprod.txt&regopt=&pcr-id=fHR4dC777oo5c2Wle55ACbNkKDotx46ya%2FEUPolCNOVqTwGYsokU%2F2gkHgvts3Oo524MIlphN6taBcC4Kr8Ph9m8hCchBy184%2BTjvLKxvGHPrgwh6HwfjtdxpLEoRTSKQCXRqcYsd5XVDln7a9uMLt3nO2M%3D,,franco.gaetan@gmail.com,JodiMartine1,,,,,,,,,,,,,,,,,password,
artstation.com,https://www.artstation.com/registration/signup,,rcmancanada@gmail.com,JodiUxbridge123!,,,,,,,,,,,,,,,,,password,
dayforcehcm.com,https://can59.dayforcehcm.com/CandidatePortal/en-US/fridayharbour/JobApplication?postingid=2658,,franco.gaetan@gmail.com,FrancoandMartine123!,,,,,,,,,,,,,,,,,password,
pubg.com,https://accounts.pubg.com/login,,franco.gaetan@gmail.com,UxbridgeMartine17!,,,,,,,,,,,,,,,,,password,
metrolinx.taleo.net,https://metrolinx.taleo.net/careersection/iam/accessmanagement/login.jsf,,fgaetan,OscarUxbridge99!,,,,,,,,,,,,,,,,,password,
jobillico.com,http://www.jobillico.com,,franco.gaetan@gmail.com,MartineJodi123,,,,,,,,,,,,,,,,,password,
pleasuredome.org.uk,http://www.pleasuredome.org.uk/recover.php,,Fudster,SeDY2MlENQ5goE7tEybY,,,,,,,,,,,,,,,,,password,
pyrsoftware.ca,https://tools1-qa.pyrsoftware.ca:5556/admin/index.shtml,,SoftwareFG,MyTest123,,,,,,,,,,,,,,,,,password,
192.168.1.9,https://192.168.1.9:10000/,,root,stw1drtw,,,,,,,,,,,,,,,,,password,
bitcointalk.org,https://bitcointalk.org/index.php?action=register,,rcmancanada@gmail.com,MiningIsFun123!,,,,,,,,,,,,,,,,,password,
spyic.com,https://spyic.com/signup.html?f_pt_ch=ICABCPC,,internetreplys@gmail.com,HackMe123!,,,,,,,,,,,,,,,,,password,
amigafuture.de,https://www.amigafuture.de/ucp.php?mode=register,,franco.gaetan@gmail.com,Uxbridge17!,,,,,,,,,,,,,,,,,password,
ldjam.com,https://ldjam.com/?id=73223&key=073d7af5d38003a3d31fa19115ecb127fe14d01f44200b417248c1d08f0747bc#user-activate,,rcman,Uxbridge17!,,,,,,,,,,,,,,,,,password,
hibid.com,https://sellthisforme.hibid.com/catalog/196439/high-end-custom-furniture-and-home-decor-auction/,,rcmancanada,Uxbridge17!,,,,,,,,,,,,,,,,,password,
cprogramming.com,https://cboard.cprogramming.com/register.php?a=act&u=87797&i=3a80145ebfe1f348963766569502376a48c9c88e,,rcman,Uxbridge17!,,,,,,,,,,,,,,,,,password,
mapcore.org,http://www.mapcore.org,,franco.gaetan@gmail.com,2cq#9i2JcG0c9sJ4dC69hPVpIfXOK^%5^P,,,,,,,,,,,,,,,,,password,
ticketking.com,https://web.ticketking.com/LogIn/online/createAccount.asp?sToken=1%2Cb3f99bb7%2C5e0a84f2%2C1673EF5E-D698-459F-BDC1-CA973E637383%2CSgBXzrshFuNgjbUHI%2FR%2Byb14AuY%3D&targetPage=default.asp&messageSource=&create=Create+a+new+account,,L9P1V3,HondaBikes123!,,,,,,,,,,,,,,,,,password,
kdxrider.net,https://kdxrider.net/forums/ucp.php?mode=register,,rcmancanada@gmail.com,Uxbridge17,,,,,,,,,,,,,,,,,password,
mobygames.com,http://www.mobygames.com,,rcmancanada@gmail.com,Uxbridge17!,,,,,,,,,,,,,,,,,password,
cyclechaos.com,https://www.cyclechaos.com/w/index.php?title=Special:CreateAccount&returnto=Kawasaki+KDX80,,rcman,Uxbridge17,,,,,,,,,,,,,,,,,password,
halifaxandassociates.com,https://trade.halifaxandassociates.com/reset-password?id=5df146a1a599ca48837899cc&signature=34a9c0a52d8b408f6bbeca12486e610f4cae9e9147c3185aca3efeb18ce90b8f,,franco.gaetan@gmail.com,FrontMeTheCashNow!,,,,,,,,,,,,,,,,,password,
vg-resource.com,https://www.vg-resource.com/member.php,,rcman,Uxbridge17!,,,,,,,,,,,,,,,,,password,
old-friends.co,https://old-friends.co/register.php,,rcmancanada@gmail.com,Uxbridge17!,,,,,,,,,,,,,,,,,password,
169.46.75.93,https://169.46.75.93/zabbix/index.php,,fgaetan,7jnMwD0k&H#xfjJpp,,,,,,,,,,,,,,,,,password,
rakuten.ca,https://www.rakuten.ca/login?form,,franco.gaetan@gmail.com,Uxbridge17!,,,,,,,,,,,,,,,,,password,
photobookcanada.com,https://www.photobookcanada.com/,,franco.gaetan@gmail.com,Martine17Uxbridge!,,,,,,,,,,,,,,,,,password,
totalav.com,https://login.totalav.com/,,franco.gaetan@gmail.com,Martine123Uxbridge17!,,,,,,,,,,,,,,,,,password,
uptrends.com,https://app.uptrends.com/PasswordReset/Index?token=4gdh4ang8iq4&lang=en-US,,fgaetan@densify.com,JG1Stw1drtw!,,,,,,,,,,,,,,,,,password,
phatmx.com,https://phatmx.com/account/register,,rcmancanada@gmail.com,Uxbridge17!,,,,,,,,,,,,,,,,,password,
cmsnl.com,https://www.cmsnl.com/my_account/my_address.php,,rcmancanada@gmail.com,9Stw1drtw!,,,,,,,,,,,,,,,,,password,
docker.com,https://hub.docker.com/signup,,fgaetan99,Uxbridge17,,,,,,,,,,,,,,,,,password,
docker.com,https://hub.docker.com/signup?next=https%3A%2F%2Fhub.docker.com,,fgaetan,Uxbridge17!,,,,,,,,,,,,,,,,,password,
192.168.1.17,https://192.168.1.17:10000/,,root,stw1drtw,,,,,,,,,,,,,,,,,password,
mtdirect.ca,https://www.mtdirect.ca/menu/index.html?CMID=OQ-REG&from_CMID=OQ-ACCESS&SessionID=,,tJ2yhjUn,Uxbridge17!,,,,,,,,,,,,,,,,,password,
tebex.io,https://server.tebex.io/register,,rcmancanada@gmail.com,Uxbridge99!,,,,,,,,,,,,,,,,,password,
lcbo.com,https://www.lcbo.com/webapp/wcs/stores/servlet/LogonForm?catalogId=10051&langId=-1&storeId=10203&krypto=%2Flg3oJ12pLZW8XO5K9daHod0O%2FyyKWFJxQNMOvvhRUFyB6V6D2hvE6x5UYLO6GgY8z5Fi8wUHpYf97wfCJcRzdPIs8BhPVyBbZAqd9RIqu0n7086l1rM02UnXpTNNti%2F4gkhQjxb%2B8MMrIoV%2FaLdveoQ9R3ooU9VvcuDLg7k8cFKaomO9wi3fTJwBUDCSeBXI9%2F1euiVA6ZwtufPDdFan%2F%2B0lzUJSL8o2w4Qr%2BsQT0DUw99UXnWWkUe6RQwNyGutNN%2FMKWjxtRQ5x2VuTFpuBRSJ%2B%2Fv%2FRW0UxS9xx5Z%2FCNefe1F%2B4h4NK8OMzcZlxkNpl2kT8VC4zT%2BjxpKTX8bd6IcV%2F%2F3yeCB4ykUg4tuf7y9FnraU5GxeIV%2FUfQ9XITo4uga%2BgGtYleLUVEHvPjDr3UOBbNx3pfHRRI0F%2F3RJzc38k%2B0G2HMJk1hKn0xoATNKppvBm5VOFOsyylzPGsRa5ZGvibdteQRentPy%2BqkOeGI0I3AIstpUxs3M08lsZ8y7zVjL656RArwcSQWHApXopTYdU%2F9lV%2BMBQitr3JFic%2B4%3D&ddkey=https%3APersonChangeServicePasswordForgottenReset,,franco.gaetan@gmail.com,MartineUxbridge17!,,,,,,,,,,,,,,,,,password,
myamigashop.com,https://shop.myamigashop.com/account/register,,franco.gaetan@gmail.com,Uxbridge17!,,,,,,,,,,,,,,,,,password,
amiga.store,https://amigakit.amiga.store/login.php,,franco.gaetan@gmail.com,JG1Stw1drtw!,,,,,,,,,,,,,,,,,password,
mrantifun.net,https://mrantifun.net/index.php?register/,,rcmancanada@gmail.com,cogency123,,,,,,,,,,,,,,,,,password,
portal.densify.com,http://portal.densify.com/help/login.html,,fgaetan@densify.com,SkcxU3R3MWRydHch,,,,,,,,,,,,,,,,,password,
hyperion-entertainment.com,http://www.hyperion-entertainment.com/index.php?option=com_user&view=login,,rcman,Cogency123!,,,,,,,,,,,,,,,,,password,
hyperion-entertainment.com,http://hyperion-entertainment.com,,franco.gaetan@gmail.com,Cogency123!,,,,,,,,,,,,,,,,,password,
sportsnet.ca,https://www.sportsnet.ca/hockey/nhl/maple-leafs-kapanen-taking-full-advantage-nylander-nowhere-sight/,,LMRFUD,JG1Stw1drtw!,,,,,,,,,,,,,,,,,password,
cirba.com,http://www.cirba.com/customer/register.html,,fgaetan@densify.com,Superrun123,,,,,,,,,,,,,,,,,password,
amigamap.com,http://amigamap.com/,,rcmancanada@gmail.com,AmigaMap123!,,,,,,,,,,,,,,,,,password,
sportsnet.ca,https://www.sportsnet.ca/hockey/nhl/maple-leafs-kapanen-taking-full-advantage-nylander-nowhere-sight/,,franco.gaetan@gmail.com,JG1Stw1drtw!,,,,,,,,,,,,,,,,,password,
spvc65v,https://spvc65v.int.cirba.com/websso/SAML2/SSO/vsphere.local?SAMLRequest=zVRdb5swFH3fr0B%2BBxtC18wKqbJm1Sq1a1ayadrLZMxNYwls5msg%2FfczJNmibqryuFfr3nPPF8yudnUVdGBRGZ2ROGIkAC1NqfRTRr6sb8IpuZq%2FmaGoq4YvWrfVj%2FCzBXTBAhGs82vXRmNbg83BdkrCrS5hlxEPtPRjSgs3Qm%2Bda5BTik0n3150kdIuksoWIpKmpj0UiIbmi%2Fu7hOb5A%2B2w2YKFqDJSVCS4MVbCeD4jG1EhkOB2mZEfKbuMp5cg4yJmrLxIN9NiUiSwKQSwRLDSj%2BFKIKoO%2Fiwitp4lOqFdRhIWT0P2LmSX63jCU8aTNEqmyXcSrKxxRprqvdJ7O1qruRGokGtRA3In%2BUCYJxHjxX4I%2Bcf1ehWuHvL1CNCpEuwnP52Rg3CephMSfD06ngyO%2Bww08tHj1680B0pkfkhk1GLPBxDH0Mj8RSBHx0NZKdCODmDHWGpwohROzOjp1T2HpOGDvtvlylRKPgeLqjL9tQXhvGZnWxjDq4V7ndjwospwM47yZrAHnedBgnw14H9uRaU2CuxfTTqH%2BKnFybke04NA7gteqsE0PIU52%2BiXKAeQzq%2FsxXgtXd0L3%2FbhU0C5hVogFc7ZcASmvqMJZSn9sPOWDL3Bo6Adqt8Yfd9H%2FSQy9skvsJh%2Bu7%2FLR6xQjWWXPgo%2Fz91z46MZzvNH0NCLooK1f%2FuH4P%2BI6hIqeDqlSl%2BGMz%2FW8%2FQ3Nf8F&SigAlg=http%3A%2F%2Fwww.w3.org%2F2001%2F04%2Fxmldsig-more%23rsa-sha256&Signature=FtYvogPDWzQQjXVbT4BTkzqz3aPLy%2B3FdWWIOH51YzT345iFXFRECA7UJUhhfmOKMHap1Ivrsw1N5WlIn%2B6%2BDLU4s3NVygUQcFR50FEFf0JxPkPdcDhfvK48cuR7rsx4fJksis%2BMEOWY%2BmecLDemNtf3F6uTyajfLEMKH9vg5aa%2B7%2BVrewYym%2B%2BTtwUYmIIRCOHVpcBm2gEcZm17WejOCI9S%2Fq6RSxoKyc0k1leU5V5un9jF%2FBg5O0uQ5YVLv0us52l1To34BQWQEgfJqRtBY%2F0vAn1eO94WDb8m2U2PCb1DbYBQ3oanMwEhRS4ku%2BOXJnR2MGkOJVGLhZA8Ckn9mA%3D%3D,,int\fgaetan,JG1Stw1drtw!,,,,,,,,,,,,,,,,,password,
shopperplus.com,https://www.shopperplus.com/guest_orders/310b9bd64f48ac692fa85d52348ac4a1,,,JG1Stw1drtw!,,,,,,,,,,,,,,,,,password,
blacks.ca,https://www.blacks.ca/en/account/login,,franco.gaetan@gmail.com,Uxbridge17!,,,,,,,,,,,,,,,,,password,
softlayer.com,https://control.softlayer.com/account/ibmid/accept?registrationCode=KiJ4peBCBfskEPcF,,9054071343,JG1Stw1drtw!,,,,,,,,,,,,,,,,,password,
certify.com,http://www.certify.com,,fgaetan@densify.com,JG1Stw1drtw!,,,,,,,,,,,,,,,,,password,
certify.com,http://www.certify.com,,fgaetan@densify.com,MartineUxbridge123!,,,,,,,,,,,,,,,,,password,
mindflash.com,http://densify.mindflash.com,,fgaetan@densify.com,JG1Stw1drtw!,,,,,,,,,,,,,,,,,password,
spvc65v,https://spvc65v.int.cirba.com/websso/SAML2/SSO/vsphere.local?SAMLRequest=zVRdb9owFH3fr4j8nji4BYrVULGyapXalTVsmvYyGedSLDl25usk9N%2FPCbAhNlU87tW699zzlVzfbEsdNeBQWZORQZKSCIy0hTIvGfmyvIuvyM303TWKUld8VvuNeYafNaCPZojgfFi7tQbrElwOrlES7k0B24wEoHkYU0b4HnrjfYWcUqwaORo2iTI%2BkcqtRCJtSVtYIVqazx4fGM3zJ9pgtQEHibZSaBLdWSehP5%2BRtdAIJLqfZ%2BTHZDwZjMZpul6PWDocMzERq6FYDYZSFlfD8TCM4UIgqgb%2BLCLWgSV6YXxGWDq4itNxzMbLwYQzxtNRwtL0O4kWznorrX6vzM6O2hluBSrkRpSA3EveEeYsSflqN4T843K5iBdP%2BbIHaFQB7lOYzsheOL%2B8vCDR14PjrHM8ZGCQ9x6%2FfaXaUyLTfSK9Fnc%2BgDiERqYngRwcj6VWYDztwA6xlOBFIby4psdXdxxYxTt99%2FOF1Uq%2BRjOtbXvrQPig2bsa%2BvBK4d8m1r2oIl73o7zq7EEfeJAoX3T4n2uh1VqB%2B6tJ5xA%2Ftpid6zHdC%2BSh4IXqTMNjmLONPkXZgzRhZScmaGnKVoS2d58Cyg2UAqnw3sU9MA0dZTS9pB%2B2wZKuN3gQtEX1G6Nt26S9SKx7CQvpgH57fMh7rFj1ZZchijDP%2FWsVounO82cw0IqVhmV4%2B4fg%2F4jqHDS8HFOlp%2BFMD%2FU8%2Fk1NfwE%3D&SigAlg=http%3A%2F%2Fwww.w3.org%2F2001%2F04%2Fxmldsig-more%23rsa-sha256&Signature=QWNjgZLH%2BLu7188qDEZNBKtXJptnYThO2rhonpbnpJmwzob2poFMpyEc48ggL1YA9DyGd%2FuftdX5qkxoBQhm63v3r2UcbdAhiLZf4XTJ3WUAZJBCH0D8OzMGid3gnJbohKctTljelB7mW%2BPgawIVgAJsBZhNsMP54eorhBLtMKlnCoD8ZBLYNNVw3tIuaNHFBmwPZmalW857kquTz%2FyJqFCkMhCXEUHGjVcbfv%2BZ%2BXYj2VlFhAQKITyBFdxA4WPco3AHWuDG9QkzO1usNa121l0WCTLbiZnCwS%2BKF%2FJ7D9cPVjpaXoT00glkxN86Ys2Nj4TPajUGB4d9t%2BXQydP58A%3D%3D,,int\fgaetan,JG1Stw1drtw!,,,,,,,,,,,,,,,,,password,
spvc65v,https://spvc65v.int.cirba.com/websso/SAML2/SSO/vsphere.local?SAMLRequest=zVRdb5swFH3fr0B%2BB4ND2tQKqbJm1Sq1a1ayadrL5JibxhLYzNdA%2Bu9nSLJF3VTlca%2FWveeeL5he76oyaMGiMjojSRSTALQ0hdLPGfmyug0n5Hr2boqiKms%2Bb9xWP8HPBtAFc0Swzq%2FdGI1NBTYH2yoJd7qAXUY80MKPKS3cAL11rkZOKdatvBi3kdIuksquRSRNRTtYIxqazx%2FuGc3zR9pivQULUWmkKElwa6yE4XxGNqJEIMHdIiM%2FrkaXk0nCklRewWZcALuYJIm8SCAZr9lok%2FoxXApE1cKfRcTGs0QntMsIi5NJGF%2BGo3iVMM5Szq6iNI6%2Fk2BpjTPSlO%2BV3tvRWM2NQIVciwqQO8l7wpxFMV%2Fvh5B%2FXK2W4fIxXw0ArSrAfvLTGTkI52k6IsHXo%2BOsd9xnoJEPHr99pT5QIrNDIoMWez6AOIZGZq8COToeylKBdrQHO8ZSgROFcGJKT6%2FuObCa9%2FruFktTKvkSzMvSdDcWhPOanW1gCK8S7m1i%2FYsqws0wyuveHnSeBwnyZY%2F%2FuRGl2iiwfzXpHOKnFrNzPaYHgdwXvFC9aXgKc7bRr1EOIK1f2YvxWtqqE77t%2FaeAcguVQCqcs%2BEATH1HGY1T%2BmHnLel7g0dBO1S%2FMbqui7pRZOyzX4gT%2Bu3hPh%2BwQjWUXfoo%2FDx3L7WPpj%2FPn0BDJ9YlrPzbPwT%2FR1QXUMLzKVX6OpzZsZ6nv6nZLw%3D%3D&SigAlg=http%3A%2F%2Fwww.w3.org%2F2001%2F04%2Fxmldsig-more%23rsa-sha256&Signature=epsHodnkkLd6BJy%2F3McwZ1pAihtyqsGJzKbNugDwnE4ZDkz6exgmnydq60JKozn%2F7DGp1uj4OdqdF2w6Re3uazqI5Q5aUQQtKPxOKfvtS7XAFNu6mg86TLJBU%2FqlvECo7y8PThQSn20aqpLzRYVjIlwxRe9akXAy1rsp6iyumSbIDYTq%2Brou8uNlL7qP4OTTX%2BwgUz5AGvHFqoUrF8%2FZ1bxw3bQ79cDIjQUunle120v920RENU%2BBUUu5qBoI2i86gxMl13BNv8EKYb6EEonrhdgw832G9kKn8fETJbuSH0%2Bi2uBCERtX78B96y6CVX46jkWYXceJl%2BNrH2v85wwkog%3D%3D,,int\fgaetan,JG1Stw1drtw!,,,,,,,,,,,,,,,,,password,
hyperion-entertainment.biz,http://hyperion-entertainment.biz/,,rcman,Cogency123!,,,,,,,,,,,,,,,,,password,
spvc65v,https://spvc65v.int.cirba.com/websso/SAML2/SSO/vsphere.local?SAMLRequest=zVRbb5swFH7fr0B%2BB3NL1lohVdasWqVespJN014mxxwaS2AzHwPpv58hyRZ1U5XHvVrnfOe7wexqV1deBwalVhmJgpB4oIQupHrOyJf1jX9BrubvZsjrqmGL1m7VE%2FxsAa23QARj3dq1VtjWYHIwnRRwqwrYZcQBLd2YVNyO0FtrG2SUYtOJ6aQLpLKBkGbDA6Fr2sMGUdN8cX8X0zx%2FpB02WzAQVFrwing32ggYz2ek5BUC8W6XGfkxnUyTYlJG03LCJ2VZRpMk3iQihk2avL%2BMCzeGK44oO%2FiziNg6lmi5shmJw%2BjCDy%2F9cLqOUpZELEmDNI2%2BE29ltNVCVx%2Bk2tvRGsU0R4lM8RqQWcEGwiwOQrbZDyH7tF6v%2FNVjvh4BOlmAeXDTGTkIZ2maEO%2Fr0fF4cNxloJCNHr99pTlQIvNDIqMWcz4AP4ZG5q8COTrui0qCsnQAO8ZSg%2BUFt3xGT6%2FuOcQNG%2FTdLle6kuLFW1SV7q8NcOs0W9PCGF7N7dvEhhdZ%2BOU4yprBHrSOB%2FHy1YD%2FueWVLCWYv5p0DvFTi%2BNzPaYHgcwVvJCDaXgKc7bRr1EOIJ1b2YtxWrq6567tw6eAYgs1R8qtNf4ITF1HYxqm9OPOWTL0Bo%2BCdih%2FY%2FR9H%2FRJoM2zWwgj%2Bu3%2BLh%2BxfDmWXbgo3DyzL42LZjjPnkBBzzcVrN3bPwT%2FR1SXUMHzKVX6Opz5sZ6nv6n5Lw%3D%3D&SigAlg=http%3A%2F%2Fwww.w3.org%2F2001%2F04%2Fxmldsig-more%23rsa-sha256&Signature=Shf%2BBtvUq0QvnQ%2BCfldd56RNGRRftK%2FlkD%2BXrPVVSUtxOS61s42jFUYTwOiZgBtTi%2B4UgQyNI8uvMVE5qrFkIaWVxt0klEDaug2cSSOVrSktaxChIJb2RY3R9R%2FDcoC4gJjKWif9saKCti%2FqkuNXheSjuO7f%2FjJ5mEoES5nGIPHXlZbl%2B40g2mOII1hwebg%2FgbkiCVanfxoHANys1VLYKHkTLtpsjsHx3lm2fI7tiezMLKC2%2BDn1znMWyCJZIV3MNcGj%2FO6N2SHuWAvhTjiSVkqH0eRFuX11cqUPYCLfpxc%2Fu4c0CumAnElZZlnAg6BjaXbUyz%2FObMzUCR8tJ5uQEQ%3D%3D,,int\fgaetan,JG1Stw1drtw!,,,,,,,,,,,,,,,,,password,
spvc65v,https://spvc65v.int.cirba.com/websso/SAML2/SSO/vsphere.local?SAMLRequest=zVRLj9owEL73V0S%2BJw7htbUIK7p0VaR90A2tql4q4wxgybFTj5Ow%2F75OgBbRasWxV2vmm%2B%2BVTG73hQpqsCiNTkkvikkAWphc6m1KvqzuwxtyO303QV6oks0qt9Mv8LMCdMEMEazza3dGY1WAzcDWUsBC57BPiQea%2BzGpueugd86VyCjFshajYR1J7SIh7ZpHwhS0gTWiodns8SGhWfZMayx3YCFSRnBFgntjBXTnU7LhCoEEi3lKfiTrYdyP32%2FGMOqPRvkwyZM1CNiIgYjjUb8dwyVHlDX8WUSsPEt0XLuUJHHvJozHYTJe9RLWG7BhHPVuxt9JsLTGGWHUB6kPdlRWM8NRItO8AGROsJYwS6KYrQ9DyD6tVstw%2BZytOoBa5mCf%2FHRKjsLZYNAnwdeT40nruM9AI%2Bs8fvtKeaREpsdEOi32egB%2BCo1MLwI5OR4KJUE72oKdYinA8Zw7PqHnVw8ckpK1%2BhbzpVFSvAYzpUxzZ4E7r9nZCrrwCu7eJta%2ByDzcdKOsbO1B53mQIFu2%2BJ8rruRGgv2rSdcQP7c4udZjehTIfMFz2ZqG5zBXG32JcgSp%2FcpBjNdSFw33bW8%2FBRQ7KDhS7pwNO2DqO5rQeEA%2F7r0lbW%2FwJGiP8jdG0zRR04%2BM3fqFuEe%2FPT5kHVYou7ILH4WfZ%2B619NG059kLaGj4WsHKv%2F1D8H9EdQ4KtudU6WU401M9z39T018%3D&SigAlg=http%3A%2F%2Fwww.w3.org%2F2001%2F04%2Fxmldsig-more%23rsa-sha256&Signature=jkTAQAj0njzBPhGWCbwO2NAJ2s2ScqBM0pS%2FI9ozXYQzfyioMU%2F2LE9GoApquklrylkFejF7O17i6jTIflIXsviOUXcjm7LHFxj0EZcPRVR6CzQ9KcxRXaGt0XgxfiEuOfHF8FgxAS3nR2vAXUddg%2F2X8CpXs0pZlwcqpnUNb2a8WffBvriadGl2sNZFbqFkE6WyaOxlnaOn9tBo%2FAmLPinMrQHTOlRPjOEDNCkRqufBeLJ27wqRErYT5B0dfk0bpEfJVfg2b8JV2Ae41K9alJvaeiEk%2FOVQ3q%2ByD%2BE9xDx%2FWCusnAGNzopGbZ2FsaFfOAUFsRkqLMfI0vG7kOecSw%3D%3D,,int\fgaetan,JG1Stw1drtw!,,,,,,,,,,,,,,,,,password,
login20.monster.ca,https://login20.monster.ca/Login/SignIn,,franco.gaetan@gmail.com,JG1Stw1drtw!,,,,,,,,,,,,,,,,,password,
jobs.bce.ca,https://jobs.bce.ca/bell/talentcommunity/login/,,franco.gaetan@gmail.com,jg1sTW1DRTW!,,,,,,,,,,,,,,,,,password,
epost.ca,https://sso.epost.ca/sso/lfe/ui/login?stepupId=consumer&sourceApp=EPOST&templateId=cpcapps&manifestId=epostCreate&sourceUrl=https%3A%2F%2Fwww.canadapost.ca%2Fweb%2Fen%2Fpages%2Fepost%2Fdefault.page&targetUrl=https%3A//www.canadapost.ca/inbox/en&authlvl=&language=en,,fgaetanuxbridge,JG1Stw1drtw!,,,,,,,,,,,,,,,,,password,
amigalove.com,https://amigalove.com/ucp.php?mode=register,,franco.gaetan@gmail.com,Martine123!,,,,,,,,,,,,,,,,,password,
amigaworld.net,https://amigaworld.net/register.php,,franco.gaetan@gmail.com,Cogency123!,,,,,,,,,,,,,,,,,password,
Generated Password for facebook.com,https://www.facebook.com/index.php?next=https%3A%2F%2Fwww.facebook.com%2Fpassword%2Fchange%2Freason%2F,,,PQ#u!91O^jY^1lic@SqA5uP4,,,,,,,,,,,,,,,,,password,
sttvietjet.densify.com,https://sttvietjet.densify.com/CIRBA/,,fgaetan@densify.com,VXhicmlkZ2UxNyE=,,,,,,,,,,,,,,,,,password,
crn.lhh.com,https://crn.lhh.com/,,fgaet401,JG1Stw1drtw!,,,,,,,,,,,,,,,,,password,
jobs.rbc.com,https://jobs.rbc.com/ca/en/login,,franco.gaetan@gmail.com,JG1Stw1drtw!,,,,,,,,,,,,,,,,,password,
sjobs.brassring.com,https://sjobs.brassring.com/TGWebHost/home.aspx,,franco.gaetan@gmail.com,MartineandFranco123!,,,,,,,,,,,,,,,,,password,
wikidot.com,https://www.wikidot.com/,,rcmancanada@gmail.com,WEJHJ@#(@#*U(*#(,,,,,,,,,,,,,,,,,password,
user-activation.zerto.com,https://user-activation.zerto.com/,,franco.gaetan@gmail.com,a1R0G000004HDJVUA4!,,,,,,,,,,,,,,,,,password,
slack.com,https://densify.slack.com/join/signup_confirmed/enQtNDE0NDQwMzA0ODUwLTQ3NzZjZTZkMzZiMWZjZGMwODk3MzU5MTMxNzllZjJkM2M3MjBjN2JiNzkzMTkwMzhiYTU1NmFlNzE3NjdiNzQ,,Franco,JG1Stw1drtw!,,,,,,,,,,,,,,,,,password,
spvc65v,https://spvc65v.int.cirba.com/websso/SAML2/SSO/vsphere.local?SAMLRequest=zVRLj5swEL73VyDfwYQ8ay1ZpZuuGmkf6ZJWVS%2BVMZONJWNTj4Hsv68hSRttq1WOvVoz33wvuLrelypowKI0OiWDKCYBaGEKqZ9T8mVzG87I9fzdFfJSVWxRu51%2Bgp81oAsWiGCdX7sxGusSbAa2kQJWuoB9SjzQ0o9JzV0PvXOuQkYpVo2YjJtIahcJaXMeCVPSFnJEQ7PF%2FV1Cs%2ByRNljtwEKkjOCKBLfGCujPp2TLFQIJVsuU%2FBhNptPxbDreJkURQ56PtvE0L4o8HhfFELaexArXHFE28GcRsfYs0XHtUpLEg1kYz8Lk%2FWYwYcOYjafRcDL9ToK1Nc4Ioz5IfbCjtpoZjhKZ5iUgc4J1hFkSxSw%2FDCH7tNmsw%2FVjtukBGlmAffDTKTkKZ6PRkARfT44nneM%2BA42s9%2FjtK9WREpkfE%2Bm12MsB%2BCk0Mn8VyMnxUCgJ2tEO7BRLCY4X3PEren71wCGpWKdvtVwbJcVLsFDKtDcWuPOana2hD6%2Fk7m1i3Ysswm0%2FyqrOHnSeBwmydYf%2FueZKbiXYv5p0CfFzi5NLPaZHgcwXvJCdaXgOc7HRr1GOII1fOYjxWpqy5b7t3aeAYgclR8qds2EPTH1HExqP6Me9t6TrDZ4E7VH%2BxmjbNmqHkbHPfiEe0G%2F3d1mPFcq%2B7MJH4eeZe6l8NN159gQaWp4r2Pi3fwj%2Bj6guQcHzOVX6Opz5qZ7nv6n5Lw%3D%3D&SigAlg=http%3A%2F%2Fwww.w3.org%2F2001%2F04%2Fxmldsig-more%23rsa-sha256&Signature=oNLYPra1AUNrJBBN5rtjFNaRQa%2FHVUYNffWRjGIRbTQvf%2F%2FghMdNBG5UgdALzYzHXrdIYtTZ8mS9JhXnFHBy5PlVu1dZmarEPRZSvxu7uJ7FushFNPD3SdFApuV5zbwJJieW3D2h7PMpmaR88FvpozR7trhNJRw90cryvqojIimghDCzTRCLoFNi1aW8Qp8tZ44rKHRwtC8FsVgzD6ZWr%2FSPMNNRSxjdBIMDx9WBn1zKplznGcfVMuvd5U462mhnX6V8x8iZ2EkN68wtpA%2FMX9VLpNCSSbT0iCbcQdjjyvsa1W5CLPBare59cIBF0cOry9TPDvuelHrKVnO2GJNlig%3D%3D,,int\fgaetan,JG1Stw1drtw!,,,,,,,,,,,,,,,,,password,
atariage.com,https://atariage.com/forums/index.php?app=core&module=global&section=register,,rcmancanada@gmail.com,Cogency123!,,,,,,,,,,,,,,,,,password,
sunlife.ca,https://www.sunlife.ca/,,!!!!!!!!!!!,Uxbridge17,,,,,,,,,,,,,,,,,password,
app.teamsupport.com,https://app.teamsupport.com/vcr/46/Pages/LoginNewPassword.html,,fgaetan@densify.com,JG1Stw1drtw!,,,,,,,,,,,,,,,,,password,
192.168.1.1,http://192.168.1.1,,admin,FrancoUxbridge17,,,,,,,,,,,,,,,,,password,
sapsf.com,https://career17.sapsf.com,,franco.gaetan@gmail.com,BringBackNormal123,,,,,,,,,,,,,,,,,password,
thinkresearch.com,https://virtualcare.thinkresearch.com,,franco.gaetan@gmail.com,Uxbridge99!,,,,,,,,,,,,,,,,,password,
Export,https://lastpass.com/export.php,,,,,,,,,,,,,,,,,,,,password,
Google.com,https://accounts.google.com,,franco.gaetan@gmail.com,MartineJodi12345!,,,,,,,,Email,,,,,,,,,password,
Github.com,https://github.com/session,,franco.gaetan@gmail.com,MajestaFunny1234!,,,,,,,,Productivity Tools,,,,,,,,,password,
live.com,https://login.live.com/login.srf?wa=wsignin1.0&rpsnv=13&ct=1535329712&rver=7.0.6731.0&wp=MBI_SSL&wreply=https%3A%2F%2Fstores.office.com%2Fauthredir%3Furl%3Dhttps%253a%252f%252fstores.office.com%253a443%252fmyaccount%252fhome.aspx%253fms.officeurl%253dmyaccount%2526ui%253den-US%2526rs%253den-US%2526ad%253dUS%26hurl%3DP3oY87NNaIaalYNro%252fms00bH57tSIQSUrAYscxsKd4A%253d.o0hws17hBS%252bmS8%252buB%252fTCDxt6BOzwQh%252fc1BSugEnt9XY%253d%26ipt%3D0%26si%3D1%26wctx%3D13bce9de-42c7-4ba5-a3bc-ec86ee27ea8f&lc=1033&id=290950&lw=1&fl=easi2,,franco.gaetan@gmail.com,MartineandFranco123,,,,,,,,Email,,,,,,,,,password,
microsoftonline.com,https://login.microsoftonline.com/common/oauth2/authorize?client_id=0000000c-0000-0000-c000-000000000000&redirect_uri=https%3A%2F%2Faccount.activedirectory.windowsazure.com%2F&response_mode=form_post&response_type=code%20id_token&scope=openid%20profile&state=OpenIdConnect.AuthenticationProperties%3D7GVcjtY2NcA5x6uAbg7AnBUCiXTXR00N6jZKSNMnnafiywSBD2nenYES_8-L3IVYxtRplDp5zmuEl4KMMMKun9QwPlJ1GPTt5WzfyyNPazcoTNYzBwRHhUeLkVch39UzYzuDuBCwTpRQk6ln3h3QYDtL3oYfT5-AUpDtZ-tad6qzzJtqAyA22zlYecmhvVHvXWGB6700KtkOP7x5vZ2CL3JTFau4Zy-AlsB9P7KgU4ED5esu-YTQuzc3M-fnhpgPkBN6qfoZYCkdkG4J9QBfb_BXKKu_pFHlcdKFGrFfvu0&nonce=1533129932.cGjeX6DiL-IAHR2-QQY7Sg&nux=1,,fgaetan@densify.com,Puzzles123,,,,,,,,Business,,,,,,,,,password,
amazon.ca,https://www.amazon.ca/ap/signin,,franco.gaetan@gmail.com,SilkwormJodi1234!,,,,,,,,Shopping,,,,,,,,,password,
idmsa.apple.com,https://idmsa.apple.com/appleauth/auth/signin,,franco.gaetan@gmail.com,JG1Stw1drtw!,"on the Imac changed it to Uxbridge17!

",,,,,,,Shopping,,,,,,,,,password,
steamcommunity.com,https://steamcommunity.com/login/home/,,rcman2,JG9Stw1drtw!,,,,,,,,Games,,,,,,,,,password,
twitter.com,https://twitter.com,,LMRFUD,IRl0lVf$c%rbuWD1*n6omr!Asy*sNlD3mA0C8wY6KZA&kDOeApG,,,,,,,,Social,,,,,,,,,password,
Twitter.com,https://twitter.com,,franco.gaetan@gmail.com,'%xtugH2&D^8H$K1jexKz,,,,,,,,Social,,,,,,,,,password,
rogers.com,https://www.rogers.com/ignitewifi/signin,,marjod183@gmail.com,FrancoMartine123!,,,,,,,,Telecom,,,,,,,,,password,
google.com,https://accounts.google.com/signup/v2/webcreateaccount?flowName=GlifWebSignIn&flowEntry=SignUp,,fgsamsung183,Uxbridge17!,,,,,,,,Email,,,,,,,,,password,
Shutterstock.com,https://accounts.shutterstock.com/credentials/reset,,franco.gaetan@gmail.com,Game Kits Adventure,,,,,,,,Arts,,,,,,,,,password,
Google.com,https://accounts.google.com/v3/signin/challenge/pwd,,fpgaetan@gmail.com,8*7a@B3hCEj19U^D4&kDz!3k@NG,,,,,,,,Email,,,,,,,,,password,
accounts.google.com,https://accounts.google.com/signin/v2/challenge/pwd,,rcmancanada@gmail.com,SupraDriver123!,,,,,,,,Email,,,,,,,,,password,
google.com,https://accounts.google.com,,fpgaetan@gmail.com,zN1CLwA9IXappLglv,,,,,,,,Email,,,,,,,,,password,
bell.ca,https://mybell.bell.ca/Login,,sheremetas@sympatico.ca,BenNickElla3,,,,,,,,Business,,,,,,,,,password,
google.com,https://accounts.google.com,,internetreplys@gmail.com,RickDanger123!,,,,,,,,Email,,,,,,,,,password,
accounts.google.com (2),https://accounts.google.com/AddSession,,rootakagod@gmail.com,FortNight123!,,,,,,,,Email,,,,,,,,,password,
google.com,https://accounts.google.com/signin/v2/sl/pwd?hl=en&continue=https%3A%2F%2Fmail.google.com%2Fmail&service=mail&flowName=GlifWebSignIn&flowEntry=AddSession&cid=1&navigationDirection=forward,,uxbridgegaetan@gmail.com,HondaKawasaki123!,,,,,,,,Email,,,,,,,,,password,
google.com,https://accounts.google.com/signin/v2/sl/pwd?hl=en&continue=https%3A%2F%2Fwww.google.com%2F&flowName=GlifWebSignIn&flowEntry=AddSession&cid=1&navigationDirection=forward,,fgsamsung183@gmail.com,Uxbridge17!,"Sign in to mozilla sync with this email and password Cogency123!


",,,,,,,Email,,,,,,,,,password,
redhat.com,http://sso.redhat.com,,franco.gaetan@gmail.com,mARTINEANDfRANCO123,,,,,,,,Business,,,,,,,,,password,
signin.ebay.ca,https://signin.ebay.ca/ws/eBayISAPI.dll,,kyoshoscorpionkid,ZkN2hdl57cN*@iiXcANGu@%cQsHwgQ8Y!irnIfZlGL$40MSyyNp,,,,,,,,Shopping,,,,,,,,,password,
Ebay,https://accounts.ebay.com/acctxs/change-password,,kyoshoscorpionkid,Oscar1967!,,,,,,,,Shopping,,,,,,,,,password,
id.sonyentertainmentnetwork.com,https://id.sonyentertainmentnetwork.com/signin/,,franco.gaetan@gmail.com,MartineJodi67!,MartineUxbridge17!,,,,,,,Entertainment,,,,,,,,,password,
kickstarter.com,http://www.kickstarter.com,,franco.gaetan@gmail.com,MartineJodi123!,,,,,,,,Finance,,,,,,,,,password,
signin.aws.amazon.com,https://signin.aws.amazon.com/signin,,franco.gaetan@gmail.com,ScorpionKid12345!,,,,,,,,Shopping,,,,,,,,,password,
google.com,https://accounts.google.com/signin/v2/challenge/pwd?hl=en&continue=https%3A%2F%2Fwww.google.ca%2F&ec=GAlAmgQ&flowName=GlifWebSignIn&flowEntry=AddSession&cid=1&navigationDirection=forward&TL=AM3QAYYm3x_orjrLqiMoNZ5SSgMjOo3eoPzoevEaHZv_dR7wIWIYOyrjiOW7wYH0,,,Newroute16,,,,,,,,Email,,,,,,,,,password,
imgur.com,https://imgur.com/signin/forgotpassword/915d2651eba8041d0ba681f580c85123,,rcman1,Silkworm123456!,,,,,,,,Social,,,,,,,,,password,
linkedin.com,https://www.linkedin.com/,,franco.gaetan@gmail.com,HondaMotor123!,,,,,,,,Social,,,,,,,,,password,
facebook.com,https://www.facebook.com/login.php,,franco.gaetan@gmail.com,SilkwormFranco123!,,,,,,,,Social,,,,,,,,,password,
imdb.com,http://www.imdb.com,,franco.gaetan@gmail.com,MartineJodi123!,,,,,,,,News/Reference,,,,,,,,,password,
dropbox.com,https://www.dropbox.com/en_GB/login,,franco.gaetan@gmail.com,umgMmrVC72T^!f6xhHH*z,,,,,,,,Productivity Tools,,,,,,,,,password,
secure.indeed.com,https://secure.indeed.com/account/login,,franco.gaetan@gmail.com,JG1Stw1drtw!,,,,,,,,Business,,,,,,,,,password,
vmware.com,https://my.vmware.com/web/vmware/login?errorCode=AUTH-ERR-20001&p_error_codes_list=OAM-2%252COAM-5&p_error_code=OAM-5,,franco.gaetan@gmail.com,MartineGaetan123!,,,,,,,,Productivity Tools,,,,,,,,,password,
reddit.com,https://www.reddit.com/register,,rcman2,s*7EcXklWr%1XP%#VE18Ev6H,,,,,,,,Social,,,,,,,,,password,
Slcrb,,,,,"Mojacks123!     To instance Fortnight123!


Was Summit1g!


Now Martinelove123!

Needed to be changed 
Spaceman123!

And INT DOMAIN will be the same 

Puzzles123


",,,,,,,Secure Notes,,,,,,,,,note,
samsung.com,http://www.samsung.com,,rcmancanada@gmail.com,monitor3,,,,,,,,Shopping,,,,,,,,,password,
twitter.com,https://twitter.com/i/flow/signup,,rcmancanada@gmail.com,Martine123!,,,,,,,,Social,,,,,,,,,password,
facebook.com,https://www.facebook.com/login/device-based/regular/login/?login_attempt=1&lwv=110,,sheremetas@sympatico.ca,Uxbridge17,,,,,,,,Social,,,,,,,,,password,
instagram.com,https://www.instagram.com/accounts/password/reset/confirm/2iojgwt/567-2bfe95c11abf74fd0fbfd628a4d25865/?s=password_reset_email,,franco.gaetan@gmail.com,FrancoOscar123!,,,,,,,,Social,,,,,,,,,password,
google.com,https://accounts.google.com/signup/v2/webcreateaccount?flowName=GlifWebSignIn&flowEntry=SignUp,,freedom.fifty.two,Uxbridge17!,,,,,,,,Email,,,,,,,,,password,
reddit.com,https://www.reddit.com/register/,,rcman_redditR,s*7EcXklWr%1XP%#VE18Ev6H,,,,,,,,Social,,,,,,,,,password,
Lastpass.com (2),https://lastpass.com/,,franco.gaetan@gmail.com,Uxbridge17Martine!,,,,,,,,Productivity Tools,,,,,,,,,password,
dropbox.com,https://www.dropbox.com,,rcmancanada@gmail.com,Frankino123!,,,,,,,,Productivity Tools,,,,,,,,,password,
sonyentertainmentnetwork.com,https://id.sonyentertainmentnetwork.com/id/reset_password/?ticket_uuid=bfb07003-ea41-4c6d-a8e1-76fb029a61dc&unified_country=CA&unified_language=en_CA#/reset_password/create?entry=%2Freset_password,,rootakagod@gmail.com,MartineUxbridge17!,,,,,,,,Entertainment,,,,,,,,,password,
myaccount.google.com,https://myaccount.google.com/u/1/signinoptions/password,,rcmancanada@gmail.com,JumpingFox123!,,,,,,,,Email,,,,,,,,,password,
Lastpass.com,https://lastpass.com/,,ad3a78118a8e4a2a9ddbbd5bf712e5c6@lastpass.com,Uxbridge17Martine!,,,,,,,,Productivity Tools,,,,,,,,,password,
dailymotion.com,http://www.dailymotion.com,,franco.gaetan@gmail.com,Uxbridge17!Martine123,,,,,,,,News/Reference,,,,,,,,,password,
ubi.com,https://connect.ubi.com/?appId=19ba479c-b658-4b7e-8ffd-88f2c85b79e6&genomeId=f925bee3-bb86-4ef6-8293-e03e1d608a43&lang=en-US&nextUrl=https%3a%2f%2fsupport.ubi.com%2fen-US%2fSignIn%2fLoginSuccess%3fdestination%3dhttp%253a%252f%252fsupport.ubi.com%252fen-US%252fCases%252fNew,,franco.gaetan@gmail.com,Uxbridge17,,,,,,,,Games,,,,,,,,,password,
flickr.com,https://identity.flickr.com/login?redir=https%3A%2F%2Fwww.flickr.com%2F,,franco.gaetan@gmail.com,MartineUxbridge17!,,,,,,,,Social,,,,,,,,,password,
icims.com,https://employment-mackenziehealth.icims.com/jobs/3920/system-analyst---technology-services/candidate?from=login&eem=qy7uJHYTen5%252BKKMFzmsnEdI6H5Je5rzRfgDM%252BR0GOtmTPf6ZWrDYse7iGcDoTuWi&code=b4bae4784030d460a9ec4f9e5e8169b14d329b52a39c434b2724cae8eed3ecce&in_iframe=1,,fgaetan,Martine123,,,,,,,,Business,,,,,,,,,password,
avast.com,https://id.avast.com/sso?utm_content=449947&utm_term=195579048_53015_50&utm_medium=email&utm_source=sfmc&utm_campaign=con_tr_all_all_all_all_2018_q2_bobm_idavastrepa#/confirm/recover-password,,rcmancanada@gmail.com,WillowTree123,,,,,,,,Business,,,,,,,,,password,
humblebundle.com,https://www.humblebundle.com/,,franco.gaetan@gmail.com,JG1Stw1drtw!,,,,,,,,Games,,,,,,,,,password,
battle.net,http://us.battle.net,,franco.gaetan@gmail.com,JGEB9Stw1drtw!,,,,,,,,Games,,,,,,,,,password,
nintendo.com,https://accounts.nintendo.com/federation/register?temporary_token=303920332%3A80bf43294256cb56f147c7aa2d362c3a95ad03d1&post_register_redirect_uri=https%3A%2F%2Faccounts.nintendo.com%2Fconnect%2F1.0.0%2Fauthorize%3Flang%3Den-US%26state%3D3fe3a14b06b9436a93aaf425f65394c2%26redirect_uri%3Dhttps%253A%252F%252Faccounts.2k.com%252Fauth%252Fnintendo%252Fcallback%26response_type%3Dcode%26client_id%3D7e1a80ad55b321e9%26scope%3Duser.basic%2Buser.birthday%2Buser.email&redirect_after=5,,franco.gaetan@gmail.com,Uxbridge17!,,,,,,,,Games,,,,,,,,,password,
minecraft.net,https://my.minecraft.net/en-us/store/minecraft/#register,,franco.gaetan@gmail.com,RickDanger123!,,,,,,,,Games,,,,,,,,,password,
192.168.1.1,http://192.168.1.1/login.html,,!Â‘7Ã€Ã£NÂ´8ÃœJÃºÃ·ÂÃÂŒÃ»M?:ÂŸÂŠ$8cÂUÃŽÃ±Ã«,4Stw1drtw!,,,,,,,,Home,,,,,,,,,password,
192.168.1.1,http://192.168.1.1/login.html,,cusadmin,4Stw1drtw!,,,,,,,,Home,,,,,,,,,password,
192.168.1.1,http://192.168.1.1/login.html,,"!WsÃ·IÃ´Â“'Â®zÂºÂ‹XÃ»O@Ã»Ã¸yÂ—Ã®HÃ™Â³Ã—Ã¶'Â…Ã43Ã¾Â€Â‰%Ã•Ã‡zÂ¹k9Â„Ã’Ã®xÂ‘oÃ¤ÃŠÃºÃ™Â¶ÃS/ÃŸ Â•[hÃ—Â›1
,Â¥VÂmÂ‡aÃ¶_LÃ˜-Â½Â¨5Â¤pOÂ°Ã­Â°Ã›t^Â¿Y'v2Ã¿ÃºÃ‹ÂƒÂœÃˆÂ·ÂÂ„7FXwÂÃ¬VEÂ‰$Â¾0CÃ¸ÃºÂ´d	$Ã”Ã¬-GÂÃ›Ttq",4Stw1drtw!,,,,,,,,Home,,,,,,,,,password,
192.168.1.1,http://192.168.1.1/login.html,,!Â«yÃ”Ãº\}Ã—ÃƒÂµ&vÃÂ¼Â¥'ÃŽ	Ã¬AÂµÃ˜IÃŒ Â‚ÂžÂ§DÃž#/Ã…Â˜Â¢~Ã‘Ã¼Â&R6XÃ’PÂƒÃ²ÂˆX<MÃ¼9yÂµlÃ§SÃ³Â„Â”.?Â´xÃ®Ã§iÂ€,4Stw1drtw!,,,,,,,,Home,,,,,,,,,password,
192.168.1.1,http://192.168.1.1/,,admin,FrancoUxbridge17,,,,,,,,Home,,,,,,,,,password,
dailymotion.com,https://www.dailymotion.com/signin/email,,rcmancanada@gmail.com,Uxbridge17!Martine123,,,,,,,,News/Reference,,,,,,,,,password,
ibm.com,https://w3id.sso.ibm.com/auth/sps/auth?FedName=samlidp2&FedId=uuid564ae2bf-0164-149c-8dbf-bedb46020ff9,,franco.gaetan@ibm.com,Cogency123!,,,,,,,,Business,,,,,,,,,password,
ibm.com,http://w3idprofile.sso.ibm.com,,Franco.Franco.Gaetan@ibm.com,JG1Stw1drtw!,,,,,,,,Business,,,,,,,,,password,
ibm.com,http://w3idprofile.sso.ibm.com,,Franco.Gaetan@ibm.com,r5rhasxfudhyiom,,,,,,,,Business,,,,,,,,,password,
google.com,https://accounts.google.com/signin/v2/sl/pwd?service=CPanel&sacu=1&hl=en&continue=https%3A%2F%2Fapps.google.com%2Fuser%2Fhub&flowName=GlifWebSignIn&flowEntry=AddSession&cid=1&navigationDirection=forward,,fgaetan@densify.com,MartineJodi123!,,,,,,,,Email,,,,,,,,,password,
vimeo.com,https://vimeo.com/upload?vcid=37270&utm_medium=cpc&utm_source=google&gclid=EAIaIQobChMI_7SY8oXS5QIV0oCfCh3Vlwk0EAAYASAAEgK-fPD_BwE&gclsrc=aw.ds,,franco.gaetan@gmail.com,Uxbridge17!,,,,,,,,Entertainment,,,,,,,,,password,
adp.com,https://workforcenow.adp.com/workforcenow/login.html,,fpgaetan,MartineJodi123,,,,,,,,Finance,,,,,,,,,password,
indiegogo.com,http://www.indiegogo.com,,franco.gaetan@gmail.com,Uxbridge17!,,,,,,,,Finance,,,,,,,,,password,
bankofamerica.com,https://ssologon-prd.sm.bankofamerica.com/unauthorized/sso_login.fcc?TYPE=33554433&REALMOID=06-000cece4-668d-10a5-a7a1-c5baabc51086&GUID=0&SMAUTHREASON=0&METHOD=GET&SMAGENTNAME=$SM$kDrp6N0iE8S2fVFCGz6dIOYvylhMFqW%2fXkCTqtkamaLHivwXr0zE%2bAL9hLT6DKbY&TARGET=$SM$HTTPS%3a%2f%2fssologon-prd%2esm%2ebankofamerica%2ecom%2fssologinconfirm%2ehtml%3fCONFIRM%3dNO%26TARGET%3dHTTPS$%3a$%2f$%2fssologon-prd$%2esm$%2ebankofamerica$%2ecom$%2ffed$%2fwinsso$%2ehtml$%3fresumePath$%3d$%2Fas$%2FlEVkm$%2Fresume$%2Fas$%2Fauthorization$%2eping,,ZKi0RM0,7h6Z3PmC,,,,,,,,Finance,,,,,,,,,password,
bankofamerica.com,https://ssologon-prd.sm.bankofamerica.com/unauthorized/sso_login.fcc?TYPE=33554433&REALMOID=06-000cece4-668d-10a5-a7a1-c5baabc51086&GUID=&SMAUTHREASON=0&METHOD=GET&SMAGENTNAME=$SM$kDrp6N0iE8S2fVFCGz6dIOYvylhMFqW%2fXkCTqtkamaLHivwXr0zE%2bAL9hLT6DKbY&TARGET=$SM$HTTPS%3a%2f%2fssologon-prd%2esm%2ebankofamerica%2ecom%2fssologinconfirm%2ehtml%3fCONFIRM%3dNO%26TARGET%3dHTTPS$%3a$%2f$%2fssologon-prd$%2esm$%2ebankofamerica$%2ecom$%2ffed$%2fwinsso$%2ehtml$%3fresumePath$%3d$%2Fas$%2FDmrTv$%2Fresume$%2Fas$%2Fauthorization$%2eping,,ZKI0RM0,7h6Z3PmC,,,,,,,,Finance,,,,,,,,,password,
bankofamerica.com,https://ssologon-prd.sm.bankofamerica.com/ssoconnect/sendOTP.html,,zki0rm0,589787,,,,,,,,Finance,,,,,,,,,password,
atlassian.com,https://id.atlassian.com/login?continue=https%3A%2F%2Fdensify.atlassian.net%2Flogin%3FredirectCount%3D1%26dest-url%3D%252Fwiki%252Findex.action&email=fgaetan%40densify.com&errorCode,,fgaetan@densify.com,Uxbridge17,,,,,,,,Business,,,,,,,,,password,
godaddy.com,http://sso.godaddy.com,,fgaetan,MartineJodi123!,,,,,,,,Business,,,,,,,,,password,
adobe.com,http://adobeid.services.adobe.com,,franco.gaetan@gmail.com,Martine123!,,,,,,,,Productivity Tools,,,,,,,,,password,
ibm.com,https://idaas.iam.ibm.com/idaas/mtfim/sps/authsvc?PolicyId=urn:ibm:security:authentication:asf:basicldapuser,,fgaetan@densify.com,MartineJodi123,,,,,,,,Business,,,,,,,,,password,
adobe.com,https://auth.services.adobe.com/en_US/deeplink.html?deeplink=signup&callback=https%3A%2F%2Fims-na1.adobelogin.com%2Fims%2Fadobeid%2FAdobeStockClient2%2FAdobeID%2Fcode%3Fredirect_uri%3Dhttps%253A%252F%252Fstock.adobe.com%252Fca%252Fsearch%253Fk%253Dparallax%2526isa0%253D1%26state%3D%257B%2522ac%2522%253A%2522stock.adobe.com%2522%257D%26code_challenge_method%3Dplain%26use_ms_for_expiry%3Dtrue&client_id=AdobeStockClient2&scope=AdobeID%2Copenid%2Ccreative_cloud%2Ccreative_sdk%2Ccc_private%2Cgnav%2Csao.stock%2Cadditional_info.address.mail_to%2Cadditional_info.dob%2Cread_organizations%2Cread_pc.stock%2Cread_pc.stock_credits%2Cadditional_info.roles%2Csao.cce_private%2Caccount_cluster.read&denied_callback=https%3A%2F%2Fims-na1.adobelogin.com%2Fims%2Fdenied%2FAdobeStockClient2%3Fredirect_uri%3Dhttps%253A%252F%252Fstock.adobe.com%252Fca%252Fsearch%253Fk%253Dparallax%2526isa0%253D1%26response_type%3Dcode%26state%3D%257B%2522ac%2522%253A%2522stock.adobe.com%2522%257D&state=%7B%22ac%22%3A%22stock.adobe.com%22%7D&relay=ce61da37-acd6-4ea4-bd9a-3aa17cf8d511&locale=en_US&flow_type=code&ctx_id=adbstk_c&idp_flow_type=create_account&dl=true#/signup,,gg,PaperBoy123,,,,,,,,Productivity Tools,,,,,,,,,password,
zendesk.com,https://watchbeam.zendesk.com/auth/v2/login/email_verification?return_to=https%3A%2F%2Fwatchbeam.zendesk.com%2F&theme=hc&token=kAUnlZX7MDGwXXZb2hFasGm6PiPOFTV8&locale=1&brand_id=207349&auth_origin=207349%2Cfalse%2Ctrue,,Franco Gaetam,MartineUxbridge21!,,,,,,,,Productivity Tools,,,,,,,,,password,
ibm.com,https://w3id.sso.ibm.com/pkmslogin.form?token=Unknown,,Franco.Franco.Gaetan@ibm.com,JGEB1Stw1drtw!,,,,,,,,Business,,,,,,,,,password,
zendesk.com,"https://gearboxsoftware.zendesk.com/auth/v2/login/email_verification?auth_origin=406904,false,true&brand_id=406904&flash_digest=7a83b61d1da5e6515e4f3caef01584b637229c28&return_to=https://gearboxsoftware.zendesk.com/auth/v2/login/signed_in?auth_origin=406904%252Cfalse%252Ctrue%26brand_id=406904%26theme=hc%26token=lWv3OeHvcy0O0OJXLdVEId7xuyhepN90&theme=hc&user%5Bemail%5D=",,franco.gaetan@gmail.com,Uxbridge17!,,,,,,,,Productivity Tools,,,,,,,,,password,
zendesk.com,https://gearboxsoftware.zendesk.com/auth/v2/login/email_verification?return_to=https%3A%2F%2Fgearboxsoftware.zendesk.com%2F&theme=hc&token=lWv3OeHvcy0O0OJXLdVEId7xuyhepN90&locale=1&brand_id=406904&auth_origin=406904%2Cfalse%2Ctrue,,Franco Gaetan,Uxbridge17!,,,,,,,,Productivity Tools,,,,,,,,,password,
webex.com,http://idbroker.webex.com,,franco.gaetan@gmail.com,Uxbridge17,,,,,,,,Productivity Tools,,,,,,,,,password,

